$GPGGA,091141.000,4728.4374,N,01903.4787,E,1,6,2.14,110.2,M,41.1,M,,*5D
$GPGSA,A,3,05,09,21,30,07,20,,,,,,,2.35,2.14,0.97*06
$GPRMC,091141.000,A,4728.4374,N,01903.4787,E,0.02,251.11,041125,,,A*6F
$GPVTG,251.11,T,,M,0.02,N,0.03,K,A*3A
$GPGGA,091142.000,4728.4374,N,01903.4787,E,1,6,2.14,110.2,M,41.1,M,,*5E
$GPGSA,A,3,05,09,21,30,07,20,,,,,,,2.35,2.14,0.97*06
$GPRMC,091142.000,A,4728.4374,N,01903.4787,E,0.05,17.22,041125,,,A*5B
$GPVTG,17.22,T,,M,0.05,N,0.09,K,A*07
$GPGGA,091143.000,4728.4374,N,01903.4787,E,1,6,2.14,110.2,M,41.1,M,,*5F
$GPGSA,A,3,05,09,21,30,07,20,,,,,,,2.35,2.14,0.97*06
$GPGSV,4,1,14,07,77,072,35,30,69,219,35,21,63,283,36,20,58,276,32*7A
$GPGSV,4,2,14,09,40,093,32,05,33,310,25,11,24,244,19,13,14,277,*75
$GPGSV,4,3,14,14,13,173,,16,07,030,18,06,06,209,,04,03,096,*70
$GPGSV,4,4,14,27,01,056,,47,,,*48
$GPRMC,091143.000,A,4728.4374,N,01903.4787,E,0.03,230.22,041125,,,A*6B
$GPVTG,230.22,T,,M,0.03,N,0.06,K,A*39
$GPGGA,091144.000,4728.4374,N,01903.4787,E,1,6,2.14,110.2,M,41.1,M,,*58
$GPGSA,A,3,05,09,21,30,07,20,,,,,,,2.35,2.14,0.97*06
$GPRMC,091144.000,A,4728.4374,N,01903.4787,E,0.05,93.99,041125,,,A*51
$GPVTG,93.99,T,,M,0.05,N,0.09,K,A*0B
$GPGGA,091145.000,4728.4374,N,01903.4787,E,1,6,2.14,110.2,M,41.1,M,,*59
$GPGSA,A,3,05,09,21,30,07,20,,,,,,,2.35,2.14,0.97*06
$GPRMC,091145.000,A,4728.4374,N,01903.4787,E,0.04,209.59,041125,,,A*6C
$GPVTG,209.59,T,,M,0.04,N,0.06,K,A*38
$GPGGA,091146.000,4728.4374,N,01903.4787,E,1,6,2.14,110.2,M,41.1,M,,*5A
$GPGSA,A,3,05,09,21,30,07,20,,,,,,,2.35,2.14,0.97*06
$GPRMC,091146.000,A,4728.4374,N,01903.4787,E,0.05,144.82,041125,,,A*62
$GPVTG,144.82,T,,M,0.05,N,0.09,K,A*3A
$GPGGA,091147.000,4728.4374,N,01903.4787,E,1,6,2.14,110.3,M,41.1,M,,*5A
$GPGSA,A,3,05,09,21,30,07,20,,,,,,,2.35,2.14,0.97*06
$GPRMC,091147.000,A,4728.4374,N,01903.4787,E,0.07,115.60,041125,,,A*69
$GPVTG,115.60,T,,M,0.07,N,0.14,K,A*3C
$GPGGA,091148.000,4728.4374,N,01903.4787,E,1,6,2.14,110.3,M,41.1,M,,*55
$GPGSA,A,3,05,09,21,30,07,20,,,,,,,2.35,2.14,0.97*06
$GPGSV,4,1,14,07,77,072,33,30,69,219,34,21,63,283,33,20,58,276,32*78
$GPGSV,4,2,14,09,40,093,30,05,34,310,28,11,24,244,20,13,14,277,*77
$GPGSV,4,3,14,14,13,173,,16,07,030,18,06,06,208,,04,03,096,*71
$GPGSV,4,4,14,27,01,056,,47,,,*48
$GPRMC,091148.000,A,4728.4374,N,01903.4787,E,0.18,96.14,041125,,,A*51
$GPVTG,96.14,T,,M,0.18,N,0.33,K,A*0E
$GPGGA,091149.000,4728.4374,N,01903.4788,E,1,6,2.14,110.3,M,41.1,M,,*5B
$GPGSA,A,3,05,09,21,30,07,20,,,,,,,2.35,2.14,0.97*06
$GPRMC,091149.000,A,4728.4374,N,01903.4788,E,0.26,94.32,041125,,,A*54
$GPVTG,94.32,T,,M,0.26,N,0.49,K,A*08
$GPGGA,091150.000,4728.4374,N,01903.4789,E,1,6,2.14,110.3,M,41.1,M,,*52
$GPGSA,A,3,05,09,21,30,07,20,,,,,,,2.35,2.14,0.97*06
$GPRMC,091150.000,A,4728.4374,N,01903.4789,E,0.59,87.56,041125,,,A*55
$GPVTG,87.56,T,,M,0.59,N,1.09,K,A*05
$GPGGA,091151.000,4728.4375,N,01903.4795,E,1,6,2.14,110.3,M,41.1,M,,*5F
$GPGSA,A,3,05,09,21,30,07,20,,,,,,,2.35,2.14,0.97*06
$GPRMC,091151.000,A,4728.4375,N,01903.4795,E,0.89,84.97,041125,,,A*5B
$GPVTG,84.97,T,,M,0.89,N,1.65,K,A*0C
$GPGGA,091152.000,4728.4375,N,01903.4800,E,1,6,2.14,110.3,M,41.1,M,,*5F
$GPGSA,A,3,05,09,21,30,07,20,,,,,,,2.35,2.14,0.97*06
$GPRMC,091152.000,A,4728.4375,N,01903.4800,E,1.00,86.85,041125,,,A*5A
$GPVTG,86.85,T,,M,1.00,N,1.86,K,A*00
$GPGGA,091153.000,4728.4375,N,01903.4803,E,1,6,2.14,110.3,M,41.1,M,,*5D
$GPGSA,A,3,05,09,21,30,07,20,,,,,,,2.35,2.14,0.97*06
$GPGSV,4,1,14,07,76,072,32,30,69,219,29,21,63,283,28,20,58,276,29*74
$GPGSV,4,2,14,09,40,093,21,05,34,310,19,11,24,243,19,13,14,277,*78
$GPGSV,4,3,14,14,13,173,,16,07,030,15,06,06,208,,04,03,096,*7C
$GPGSV,4,4,14,27,01,056,,49,,,*46
$GPRMC,091153.000,A,4728.4375,N,01903.4803,E,0.92,86.57,041125,,,A*5D
$GPVTG,86.57,T,,M,0.92,N,1.71,K,A*0D
$GPGGA,091154.000,4728.4380,N,01903.4809,E,1,6,2.14,110.3,M,41.1,M,,*5A
$GPGSA,A,3,05,09,21,30,07,20,,,,,,,2.35,2.14,0.97*06
$GPRMC,091154.000,A,4728.4380,N,01903.4809,E,1.08,71.23,041125,,,A*53
$GPVTG,71.23,T,,M,1.08,N,2.01,K,A*00
$GPGGA,091155.000,4728.4383,N,01903.4817,E,1,6,2.14,110.4,M,41.1,M,,*50
$GPGSA,A,3,05,09,21,30,07,20,,,,,,,2.35,2.14,0.97*06
$GPRMC,091155.000,A,4728.4383,N,01903.4817,E,1.39,67.93,041125,,,A*50
$GPVTG,67.93,T,,M,1.39,N,2.58,K,A*02
$GPGGA,091156.000,4728.4383,N,01903.4824,E,1,6,2.14,110.5,M,41.1,M,,*52
$GPGSA,A,3,05,09,21,30,07,20,,,,,,,2.35,2.14,0.97*06
$GPRMC,091156.000,A,4728.4383,N,01903.4824,E,1.41,68.94,041125,,,A*54
$GPVTG,68.94,T,,M,1.41,N,2.62,K,A*0C
$GPGGA,091157.000,4728.4385,N,01903.4831,E,1,6,2.14,110.5,M,41.1,M,,*51
$GPGSA,A,3,05,09,21,30,07,20,,,,,,,2.35,2.14,0.97*06
$GPRMC,091157.000,A,4728.4385,N,01903.4831,E,1.47,65.37,041125,,,A*55
$GPVTG,65.37,T,,M,1.47,N,2.73,K,A*0E
$GPGGA,091158.000,4728.4387,N,01903.4839,E,1,6,2.14,110.5,M,41.1,M,,*54
$GPGSA,A,3,05,09,21,30,07,20,,,,,,,2.35,2.14,0.97*06
$GPGSV,4,1,14,07,76,072,33,30,69,219,33,21,63,283,28,20,58,276,22*75
$GPGSV,4,2,14,09,40,093,21,05,34,310,31,11,24,243,17,13,14,277,*7C
$GPGSV,4,3,14,14,13,173,,16,07,030,14,06,06,208,,04,03,096,*7D
$GPGSV,4,4,14,27,01,056,,42,,,*4D
$GPRMC,091158.000,A,4728.4387,N,01903.4839,E,1.58,65.90,041125,,,A*53
$GPVTG,65.90,T,,M,1.58,N,2.93,K,A*03
$GPGGA,091159.000,4728.4393,N,01903.4848,E,1,6,2.14,110.6,M,41.1,M,,*55
$GPGSA,A,3,05,09,21,30,07,20,,,,,,,2.35,2.14,0.97*06
$GPRMC,091159.000,A,4728.4393,N,01903.4848,E,1.70,59.13,041125,,,A*5F
$GPVTG,59.13,T,,M,1.70,N,3.15,K,A*02
$GPGGA,091200.000,4728.4399,N,01903.4854,E,1,6,2.14,110.6,M,41.1,M,,*5D
$GPGSA,A,3,05,09,21,30,07,20,,,,,,,2.35,2.14,0.97*06
$GPRMC,091200.000,A,4728.4399,N,01903.4854,E,1.69,52.81,041125,,,A*5F
$GPVTG,52.81,T,,M,1.69,N,3.13,K,A*0C
$GPGGA,091201.000,4728.4405,N,01903.4860,E,1,6,2.15,110.7,M,41.1,M,,*59
$GPGSA,A,3,05,09,21,30,07,20,,,,,,,2.35,2.15,0.97*07
$GPRMC,091201.000,A,4728.4405,N,01903.4860,E,1.72,48.03,041125,,,A*50
$GPVTG,48.03,T,,M,1.72,N,3.19,K,A*0D
$GPGGA,091202.000,4728.4410,N,01903.4864,E,1,6,2.15,110.7,M,41.1,M,,*5A
$GPGSA,A,3,05,09,21,30,07,20,,,,,,,2.35,2.15,0.97*07
$GPRMC,091202.000,A,4728.4410,N,01903.4864,E,1.65,45.50,041125,,,A*5E
$GPVTG,45.50,T,,M,1.65,N,3.07,K,A*0F
$GPGGA,091203.000,4728.4415,N,01903.4865,E,1,6,2.14,110.7,M,41.1,M,,*5E
$GPGSA,A,3,05,09,21,30,07,20,,,,,,,2.35,2.14,0.97*06
$GPGSV,4,1,14,07,76,072,33,30,69,219,32,21,63,282,22,20,58,276,24*79
$GPGSV,4,2,14,09,40,093,31,05,34,310,29,11,24,243,17,13,14,277,*74
$GPGSV,4,3,14,14,13,173,,16,07,030,14,06,06,208,,04,03,096,*7D
$GPGSV,4,4,14,27,01,056,,50,,,*4E
$GPRMC,091203.000,A,4728.4415,N,01903.4865,E,1.52,31.63,041125,,,A*5C
$GPVTG,31.63,T,,M,1.52,N,2.81,K,A*07
$GPGGA,091204.000,4728.4420,N,01903.4864,E,1,6,2.14,110.7,M,41.1,M,,*5E
$GPGSA,A,3,05,09,21,30,07,20,,,,,,,2.35,2.14,0.97*06
$GPRMC,091204.000,A,4728.4420,N,01903.4864,E,1.41,18.30,041125,,,A*53
$GPVTG,18.30,T,,M,1.41,N,2.61,K,A*06
$GPGGA,091205.000,4728.4424,N,01903.4865,E,1,6,2.15,110.7,M,41.1,M,,*5B
$GPGSA,A,3,05,09,21,30,07,20,,,,,,,2.35,2.15,0.97*07
$GPRMC,091205.000,A,4728.4424,N,01903.4865,E,1.45,11.73,041125,,,A*5D
$GPVTG,11.73,T,,M,1.45,N,2.68,K,A*05
$GPGGA,091206.000,4728.4429,N,01903.4867,E,1,6,2.86,110.8,M,41.1,M,,*52
$GPGSA,A,3,05,09,21,30,07,20,,,,,,,4.73,2.86,3.76*05
$GPRMC,091206.000,A,4728.4429,N,01903.4867,E,1.53,10.83,041125,,,A*58
$GPVTG,10.83,T,,M,1.53,N,2.84,K,A*0E
$GPGGA,091207.000,4728.4432,N,01903.4868,E,1,6,2.86,110.8,M,41.1,M,,*56
$GPGSA,A,3,05,09,21,30,07,20,,,,,,,4.72,2.86,3.76*04
$GPRMC,091207.000,A,4728.4432,N,01903.4868,E,1.51,9.37,041125,,,A*69
$GPVTG,9.37,T,,M,1.51,N,2.80,K,A*3F
$GPGGA,091208.000,4728.4433,N,01903.4866,E,1,6,2.86,110.8,M,41.1,M,,*56
$GPGSA,A,3,05,09,21,30,07,20,,,,,,,4.72,2.86,3.76*04
$GPGSV,4,1,14,07,76,072,31,30,69,219,20,21,63,282,23,20,58,276,28*75
$GPGSV,4,2,14,09,40,093,31,05,34,310,29,11,24,243,27,13,14,277,*77
$GPGSV,4,3,14,14,13,173,,16,07,030,14,06,06,208,,04,03,096,*7D
$GPGSV,4,4,14,27,01,056,,51,,,*4F
$GPRMC,091208.000,A,4728.4433,N,01903.4866,E,1.35,359.66,041125,,,A*69
$GPVTG,359.66,T,,M,1.35,N,2.51,K,A*33
$GPGGA,091209.000,4728.4437,N,01903.4864,E,1,6,2.86,110.8,M,41.1,M,,*51
$GPGSA,A,3,05,09,21,30,07,20,,,,,,,4.72,2.86,3.76*04
$GPRMC,091209.000,A,4728.4437,N,01903.4864,E,1.44,351.14,041125,,,A*65
$GPVTG,351.14,T,,M,1.44,N,2.67,K,A*3D
$GPGGA,091210.000,4728.4444,N,01903.4864,E,1,6,2.86,110.8,M,41.1,M,,*5D
$GPGSA,A,3,05,09,21,30,07,20,,,,,,,4.72,2.86,3.76*04
$GPRMC,091210.000,A,4728.4444,N,01903.4864,E,1.60,351.66,041125,,,A*6A
$GPVTG,351.66,T,,M,1.60,N,2.96,K,A*30
$GPGGA,091211.000,4728.4448,N,01903.4862,E,1,6,2.86,110.8,M,41.1,M,,*56
$GPGSA,A,3,05,09,21,30,07,20,,,,,,,4.72,2.86,3.76*04
$GPRMC,091211.000,A,4728.4448,N,01903.4862,E,1.56,346.83,041125,,,A*69
$GPVTG,346.83,T,,M,1.56,N,2.90,K,A*3E
$GPGGA,091212.000,4728.4460,N,01903.4864,E,1,6,2.86,110.9,M,41.1,M,,*58
$GPGSA,A,3,05,09,21,30,07,20,,,,,,,4.72,2.86,3.76*04
$GPRMC,091212.000,A,4728.4460,N,01903.4864,E,1.87,351.48,041125,,,A*6B
$GPVTG,351.48,T,,M,1.87,N,3.47,K,A*38
$GPGGA,091213.000,4728.4468,N,01903.4863,E,1,6,2.86,110.9,M,41.1,M,,*56
$GPGSA,A,3,05,09,21,30,07,20,,,,,,,4.72,2.86,3.76*04
$GPGSV,4,1,14,07,76,072,29,30,69,219,31,21,63,282,27,20,58,276,31*70
$GPGSV,4,2,14,09,40,093,30,05,34,310,29,11,24,243,23,13,14,277,26*76
$GPGSV,4,3,14,14,13,173,,16,07,030,14,06,06,208,,04,03,096,*7D
$GPGSV,4,4,14,27,01,056,,48,,,*47
$GPRMC,091213.000,A,4728.4468,N,01903.4863,E,1.97,349.07,041125,,,A*66
$GPVTG,349.07,T,,M,1.97,N,3.66,K,A*38
$GPGGA,091214.000,4728.4474,N,01903.4860,E,1,6,2.86,110.8,M,41.1,M,,*5E
$GPGSA,A,3,05,09,21,30,07,20,,,,,,,4.72,2.86,3.76*04
$GPRMC,091214.000,A,4728.4474,N,01903.4860,E,2.00,344.10,041125,,,A*69
$GPVTG,344.10,T,,M,2.00,N,3.71,K,A*38
$GPGGA,091215.000,4728.4479,N,01903.4857,E,1,6,2.15,110.9,M,41.1,M,,*5D
$GPGSA,A,3,05,09,21,30,07,20,,,,,,,2.35,2.15,0.97*07
$GPRMC,091215.000,A,4728.4479,N,01903.4857,E,1.91,343.67,041125,,,A*6D
$GPVTG,343.67,T,,M,1.91,N,3.54,K,A*33
$GPGGA,091216.000,4728.4485,N,01903.4855,E,1,6,2.15,110.9,M,41.1,M,,*5F
$GPGSA,A,3,05,09,21,30,07,20,,,,,,,2.36,2.15,0.97*04
$GPRMC,091216.000,A,4728.4485,N,01903.4855,E,1.99,344.74,041125,,,A*62
$GPVTG,344.74,T,,M,1.99,N,3.68,K,A*31
$GPGGA,091217.000,4728.4490,N,01903.4852,E,1,6,2.15,111.0,M,41.1,M,,*55
$GPGSA,A,3,05,09,21,30,07,20,,,,,,,2.36,2.15,0.97*04
$GPRMC,091217.000,A,4728.4490,N,01903.4852,E,2.05,340.17,041125,,,A*67
$GPVTG,340.17,T,,M,2.05,N,3.80,K,A*30
$GPGGA,091218.000,4728.4497,N,01903.4851,E,1,6,2.15,111.0,M,41.1,M,,*5E
$GPGSA,A,3,05,09,21,30,07,20,,,,,,,2.36,2.15,0.97*04
$GPGSV,4,1,14,07,76,072,28,30,69,219,30,21,63,282,27,20,58,276,29*79
$GPGSV,4,2,14,09,40,093,22,05,34,310,28,11,24,243,22,13,14,277,22*71
$GPGSV,4,3,14,14,13,173,,16,07,030,15,06,06,208,,04,03,096,*7C
$GPGSV,4,4,14,27,01,056,,48,,,*47
$GPRMC,091218.000,A,4728.4497,N,01903.4851,E,2.12,342.85,041125,,,A*63
$GPVTG,342.85,T,,M,2.12,N,3.93,K,A*3D
$GPGGA,091219.000,4728.4505,N,01903.4851,E,1,6,2.15,111.0,M,41.1,M,,*55
$GPGSA,A,3,05,09,21,30,07,20,,,,,,,2.36,2.15,0.97*04
$GPRMC,091219.000,A,4728.4505,N,01903.4851,E,2.08,347.73,041125,,,A*6F
$GPVTG,347.73,T,,M,2.08,N,3.86,K,A*3E
$GPGGA,091220.000,4728.4512,N,01903.4850,E,1,6,2.86,111.0,M,41.1,M,,*52
$GPGSA,A,3,05,09,21,30,07,20,,,,,,,4.72,2.86,3.75*07
$GPRMC,091220.000,A,4728.4512,N,01903.4850,E,2.11,347.21,041125,,,A*6D
$GPVTG,347.21,T,,M,2.11,N,3.91,K,A*37
$GPGGA,091221.000,4728.4518,N,01903.4850,E,1,6,2.86,111.1,M,41.1,M,,*58
$GPGSA,A,3,05,09,21,30,07,20,,,,,,,4.72,2.86,3.75*07
$GPRMC,091221.000,A,4728.4518,N,01903.4850,E,2.01,349.89,041125,,,A*6B
$GPVTG,349.89,T,,M,2.01,N,3.73,K,A*36
$GPGGA,091222.000,4728.4523,N,01903.4848,E,1,6,2.86,111.0,M,41.1,M,,*5B
$GPGSA,A,3,05,09,21,30,07,20,,,,,,,4.72,2.86,3.75*07
$GPRMC,091222.000,A,4728.4523,N,01903.4848,E,1.97,347.40,041125,,,A*6E
$GPVTG,347.40,T,,M,1.97,N,3.64,K,A*37
$GPGGA,091223.000,4728.4529,N,01903.4845,E,1,6,2.86,111.0,M,41.1,M,,*5D
$GPGSA,A,3,05,09,21,30,07,20,,,,,,,4.72,2.86,3.75*07
$GPGSV,4,1,14,07,76,072,34,30,69,219,32,21,63,282,28,20,58,276,30*71
$GPGSV,4,2,14,09,40,093,31,37,35,176,,05,34,310,28,11,24,243,23*75
$GPGSV,4,3,14,13,14,277,20,14,13,173,,16,07,030,15,06,06,208,15*77
$GPGSV,4,4,14,04,03,096,,27,01,056,*73
$GPRMC,091223.000,A,4728.4529,N,01903.4845,E,1.94,345.08,041125,,,A*65
$GPVTG,345.08,T,,M,1.94,N,3.60,K,A*3E
$GPGGA,091224.000,4728.4534,N,01903.4841,E,1,6,2.86,111.0,M,41.1,M,,*52
$GPGSA,A,3,05,09,21,30,07,20,,,,,,,4.72,2.86,3.75*07
$GPRMC,091224.000,A,4728.4534,N,01903.4841,E,1.98,341.37,041125,,,A*6E
$GPVTG,341.37,T,,M,1.98,N,3.66,K,A*3C
$GPGGA,091225.000,4728.4542,N,01903.4840,E,1,6,2.15,111.0,M,41.1,M,,*59
$GPGSA,A,3,05,09,21,30,07,20,,,,,,,2.36,2.15,0.97*04
$GPRMC,091225.000,A,4728.4542,N,01903.4840,E,2.03,341.98,041125,,,A*6B
$GPVTG,341.98,T,,M,2.03,N,3.76,K,A*39
$GPGGA,091226.000,4728.4549,N,01903.4840,E,1,6,2.15,111.0,M,41.1,M,,*51
$GPGSA,A,3,05,09,21,30,07,20,,,,,,,2.36,2.15,0.97*04
$GPRMC,091226.000,A,4728.4549,N,01903.4840,E,1.94,344.76,041125,,,A*6B
$GPVTG,344.76,T,,M,1.94,N,3.59,K,A*3C
$GPGGA,091227.000,4728.4557,N,01903.4840,E,1,6,2.15,111.1,M,41.1,M,,*5E
$GPGSA,A,3,05,09,21,30,07,20,,,,,,,2.36,2.15,0.97*04
$GPRMC,091227.000,A,4728.4557,N,01903.4840,E,2.09,348.67,041125,,,A*6E
$GPVTG,348.67,T,,M,2.09,N,3.87,K,A*34
$GPGGA,091228.000,4728.4565,N,01903.4840,E,1,6,2.86,111.1,M,41.1,M,,*5A
$GPGSA,A,3,05,09,21,30,07,20,,,,,,,4.72,2.86,3.75*07
$GPGSV,4,1,14,07,76,071,30,30,69,219,31,21,63,282,28,20,58,276,30*75
$GPGSV,4,2,14,09,39,093,31,37,35,176,,05,34,310,28,11,23,243,19*75
$GPGSV,4,3,14,13,14,277,19,14,13,173,,16,07,030,14,06,06,208,14*7D
$GPGSV,4,4,14,04,03,096,,27,01,056,*73
$GPRMC,091228.000,A,4728.4565,N,01903.4840,E,2.16,349.42,041125,,,A*68
$GPVTG,349.42,T,,M,2.16,N,4.01,K,A*35
$GPGGA,091229.000,4728.4572,N,01903.4838,E,1,6,2.86,111.1,M,41.1,M,,*52
$GPGSA,A,3,05,09,21,30,07,20,,,,,,,4.71,2.86,3.75*04
$GPRMC,091229.000,A,4728.4572,N,01903.4838,E,2.26,347.36,041125,,,A*6E
$GPVTG,347.36,T,,M,2.26,N,4.18,K,A*33
$GPGGA,091230.000,4728.4579,N,01903.4837,E,1,6,2.86,111.1,M,41.1,M,,*5E
$GPGSA,A,3,05,09,21,30,07,20,,,,,,,4.71,2.86,3.75*04
$GPRMC,091230.000,A,4728.4579,N,01903.4837,E,2.33,346.16,041125,,,A*65
$GPVTG,346.16,T,,M,2.33,N,4.32,K,A*3C
$GPGGA,091231.000,4728.4586,N,01903.4836,E,1,6,2.86,111.1,M,41.1,M,,*5E
$GPGSA,A,3,05,09,21,30,07,20,,,,,,,4.72,2.86,3.75*07
$GPRMC,091231.000,A,4728.4586,N,01903.4836,E,2.31,344.99,041125,,,A*62
$GPVTG,344.99,T,,M,2.31,N,4.29,K,A*31
$GPGGA,091232.000,4728.4591,N,01903.4835,E,1,6,2.15,111.0,M,41.1,M,,*53
$GPGSA,A,3,05,09,21,30,07,20,,,,,,,2.36,2.15,0.97*04
$GPRMC,091232.000,A,4728.4591,N,01903.4835,E,2.16,346.24,041125,,,A*65
$GPVTG,346.24,T,,M,2.16,N,4.00,K,A*3B
$GPGGA,091233.000,4728.4596,N,01903.4836,E,1,6,2.86,111.0,M,41.1,M,,*5C
$GPGSA,A,3,05,09,21,30,07,20,,,,,,,4.71,2.86,3.75*04
$GPGSV,4,1,14,07,76,071,33,30,69,219,31,21,63,282,28,20,58,276,31*77
$GPGSV,4,2,14,09,39,093,30,05,34,310,30,39,34,171,,11,23,243,19*75
$GPGSV,4,3,14,13,14,278,20,14,13,173,,16,07,030,14,06,06,208,14*78
$GPGSV,4,4,14,04,03,096,,27,01,056,*73
$GPRMC,091233.000,A,4728.4596,N,01903.4836,E,2.10,347.67,041125,,,A*60
$GPVTG,347.67,T,,M,2.10,N,3.89,K,A*3D
$GPGGA,091234.000,4728.4603,N,01903.4835,E,1,6,2.86,111.0,M,41.1,M,,*57
$GPGSA,A,3,05,09,21,30,07,20,,,,,,,4.71,2.86,3.75*04
$GPRMC,091234.000,A,4728.4603,N,01903.4835,E,2.14,346.69,041125,,,A*60
$GPVTG,346.69,T,,M,2.14,N,3.96,K,A*38
$GPGGA,091235.000,4728.4609,N,01903.4834,E,1,6,2.86,110.9,M,41.1,M,,*55
$GPGSA,A,3,05,09,21,30,07,20,,,,,,,4.71,2.86,3.75*04
$GPRMC,091235.000,A,4728.4609,N,01903.4834,E,2.10,346.23,041125,,,A*60
$GPVTG,346.23,T,,M,2.10,N,3.88,K,A*3D
$GPGGA,091236.000,4728.4616,N,01903.4833,E,1,6,2.86,110.9,M,41.1,M,,*5F
$GPGSA,A,3,05,09,21,30,07,20,,,,,,,4.71,2.86,3.75*04
$GPRMC,091236.000,A,4728.4616,N,01903.4833,E,2.16,348.20,041125,,,A*61
$GPVTG,348.20,T,,M,2.16,N,4.01,K,A*30
$GPGGA,091237.000,4728.4623,N,01903.4832,E,1,6,2.86,110.9,M,41.1,M,,*59
$GPGSA,A,3,05,09,21,30,07,20,,,,,,,4.71,2.86,3.74*05
$GPRMC,091237.000,A,4728.4623,N,01903.4832,E,2.29,348.63,041125,,,A*6C
$GPVTG,348.63,T,,M,2.29,N,4.24,K,A*3C
$GPGGA,091238.000,4728.4632,N,01903.4832,E,1,6,2.86,110.8,M,41.1,M,,*57
$GPGSA,A,3,05,09,21,30,07,20,,,,,,,4.71,2.86,3.74*05
$GPGSV,4,1,14,07,76,071,34,30,69,219,33,21,63,282,28,20,58,275,30*70
$GPGSV,4,2,14,09,39,093,32,05,34,310,30,39,34,171,,11,23,243,22*7F
$GPGSV,4,3,14,13,14,278,31,14,13,173,,16,07,030,13,06,06,208,14*7F
$GPGSV,4,4,14,04,03,096,,27,01,056,*73
$GPRMC,091238.000,A,4728.4632,N,01903.4832,E,2.41,351.14,041125,,,A*65
$GPVTG,351.14,T,,M,2.41,N,4.46,K,A*3E
$GPGGA,091239.000,4728.4637,N,01903.4830,E,1,6,2.86,110.8,M,41.1,M,,*51
$GPGSA,A,3,05,09,21,30,07,20,,,,,,,4.71,2.86,3.74*05
$GPRMC,091239.000,A,4728.4637,N,01903.4830,E,2.33,350.59,041125,,,A*6E
$GPVTG,350.59,T,,M,2.33,N,4.32,K,A*30
$GPGGA,091240.000,4728.4644,N,01903.4828,E,1,6,2.86,110.8,M,41.1,M,,*52
$GPGSA,A,3,05,09,21,30,07,20,,,,,,,4.71,2.86,3.75*04
$GPRMC,091240.000,A,4728.4644,N,01903.4828,E,2.37,348.88,041125,,,A*6C
$GPVTG,348.88,T,,M,2.37,N,4.40,K,A*34
$GPGGA,091241.000,4728.4651,N,01903.4825,E,1,6,2.86,110.7,M,41.1,M,,*55
$GPGSA,A,3,05,09,21,30,07,20,,,,,,,4.71,2.86,3.74*05
$GPRMC,091241.000,A,4728.4651,N,01903.4825,E,2.40,347.45,041125,,,A*6A
$GPVTG,347.45,T,,M,2.40,N,4.45,K,A*3F
$GPGGA,091242.000,4728.4655,N,01903.4824,E,1,6,2.86,110.6,M,41.1,M,,*52
$GPGSA,A,3,05,09,21,30,07,20,,,,,,,4.71,2.86,3.74*05
$GPRMC,091242.000,A,4728.4655,N,01903.4824,E,2.26,347.72,041125,,,A*68
$GPVTG,347.72,T,,M,2.26,N,4.19,K,A*32
$GPGGA,091243.000,4728.4663,N,01903.4821,E,1,6,2.86,110.6,M,41.1,M,,*53
$GPGSA,A,3,05,09,21,30,07,20,,,,,,,4.71,2.86,3.74*05
$GPGSV,4,1,14,07,76,071,25,30,69,219,33,21,63,282,24,20,58,275,30*7C
$GPGSV,4,2,14,09,39,093,32,05,34,310,30,33,25,222,,11,23,243,24*76
$GPGSV,4,3,14,13,14,278,32,14,13,173,,16,07,030,13,06,06,208,13*7B
$GPGSV,4,4,14,04,03,096,,27,01,056,*73
$GPRMC,091243.000,A,4728.4663,N,01903.4821,E,2.36,346.51,041125,,,A*68
$GPVTG,346.51,T,,M,2.36,N,4.38,K,A*30
$GPGGA,091244.000,4728.4670,N,01903.4818,E,1,6,2.86,110.6,M,41.1,M,,*5C
$GPGSA,A,3,05,09,21,30,07,20,,,,,,,4.71,2.86,3.74*05
$GPRMC,091244.000,A,4728.4670,N,01903.4818,E,2.39,343.14,041125,,,A*6C
$GPVTG,343.14,T,,M,2.39,N,4.44,K,A*30
$GPGGA,091245.000,4728.4674,N,01903.4815,E,1,6,2.16,110.7,M,41.1,M,,*5C
$GPGSA,A,3,05,09,21,30,07,20,,,,,,,2.36,2.16,0.97*07
$GPRMC,091245.000,A,4728.4674,N,01903.4815,E,2.30,344.96,041125,,,A*60
$GPVTG,344.96,T,,M,2.30,N,4.26,K,A*30
$GPGGA,091246.000,4728.4679,N,01903.4811,E,1,6,2.16,110.7,M,41.1,M,,*56
$GPGSA,A,3,05,09,21,30,07,20,,,,,,,2.36,2.16,0.97*07
$GPRMC,091246.000,A,4728.4679,N,01903.4811,E,2.24,341.11,041125,,,A*65
$GPVTG,341.11,T,,M,2.24,N,4.15,K,A*3F
$GPGGA,091247.000,4728.4684,N,01903.4807,E,1,6,2.16,110.7,M,41.1,M,,*52
$GPGSA,A,3,05,09,21,30,07,20,,,,,,,2.36,2.16,0.97*07
$GPRMC,091247.000,A,4728.4684,N,01903.4807,E,2.15,338.36,041125,,,A*68
$GPVTG,338.36,T,,M,2.15,N,3.99,K,A*35
$GPGGA,091248.000,4728.4690,N,01903.4806,E,1,6,2.16,110.6,M,41.1,M,,*58
$GPGSA,A,3,05,09,21,30,07,20,,,,,,,2.36,2.16,0.97*07
$GPGSV,4,1,14,07,76,071,23,30,70,219,27,21,63,282,24,20,58,275,30*77
$GPGSV,4,2,14,09,39,093,31,05,34,310,29,11,23,243,26,40,20,126,*79
$GPGSV,4,3,14,13,14,278,25,14,13,173,,16,07,030,13,06,06,208,14*7A
$GPGSV,4,4,14,04,03,096,,27,01,055,*70
$GPRMC,091248.000,A,4728.4690,N,01903.4806,E,2.12,343.43,041125,,,A*6A
$GPVTG,343.43,T,,M,2.12,N,3.93,K,A*36
$GPGGA,091249.000,4728.4695,N,01903.4803,E,1,6,2.16,110.6,M,41.1,M,,*59
$GPGSA,A,3,05,09,21,30,07,20,,,,,,,2.36,2.16,0.97*07
$GPRMC,091249.000,A,4728.4695,N,01903.4803,E,2.12,341.14,041125,,,A*6B
$GPVTG,341.14,T,,M,2.12,N,3.93,K,A*36
$GPGGA,091250.000,4728.4699,N,01903.4797,E,1,6,2.16,110.6,M,41.1,M,,*5F
$GPGSA,A,3,05,09,21,30,07,20,,,,,,,2.36,2.16,0.97*07
$GPRMC,091250.000,A,4728.4699,N,01903.4797,E,2.12,333.53,041125,,,A*6B
$GPVTG,333.53,T,,M,2.12,N,3.93,K,A*30
$GPGGA,091251.000,4728.4704,N,01903.4794,E,1,6,2.16,110.6,M,41.1,M,,*58
$GPGSA,A,3,05,09,21,30,07,20,,,,,,,2.36,2.16,0.97*07
$GPRMC,091251.000,A,4728.4704,N,01903.4794,E,2.10,334.33,041125,,,A*6F
$GPVTG,334.33,T,,M,2.10,N,3.88,K,A*39
$GPGGA,091252.000,4728.4707,N,01903.4789,E,1,6,2.16,110.6,M,41.1,M,,*54
$GPGSA,A,3,05,09,21,30,07,20,,,,,,,2.36,2.16,0.97*07
$GPRMC,091252.000,A,4728.4707,N,01903.4789,E,2.00,331.70,041125,,,A*60
$GPVTG,331.70,T,,M,2.00,N,3.71,K,A*3C
$GPGGA,091253.000,4728.4712,N,01903.4787,E,1,6,2.16,110.6,M,41.1,M,,*5F
$GPGSA,A,3,05,09,21,30,07,20,,,,,,,2.36,2.16,0.97*07
$GPGSV,4,1,14,07,76,071,25,30,70,219,27,21,63,282,27,20,58,275,31*73
$GPGSV,4,2,14,09,39,093,34,05,34,310,28,11,23,243,29,40,20,126,*72
$GPGSV,4,3,14,13,14,278,29,14,13,173,,16,07,030,13,06,06,208,14*76
$GPGSV,4,4,14,04,03,096,,27,01,055,*70
$GPRMC,091253.000,A,4728.4712,N,01903.4787,E,1.90,334.16,041125,,,A*64
$GPVTG,334.16,T,,M,1.90,N,3.53,K,A*33
$GPGGA,091254.000,4728.4716,N,01903.4784,E,1,6,2.16,110.6,M,41.1,M,,*5F
$GPGSA,A,3,05,09,21,30,07,20,,,,,,,2.37,2.16,0.97*06
$GPRMC,091254.000,A,4728.4716,N,01903.4784,E,1.83,334.08,041125,,,A*69
$GPVTG,334.08,T,,M,1.83,N,3.39,K,A*32
$GPGGA,091255.000,4728.4720,N,01903.4782,E,1,6,2.16,110.6,M,41.1,M,,*5D
$GPGSA,A,3,05,09,21,30,07,20,,,,,,,2.36,2.16,0.97*07
$GPRMC,091255.000,A,4728.4720,N,01903.4782,E,1.72,337.61,041125,,,A*69
$GPVTG,337.61,T,,M,1.72,N,3.18,K,A*33
$GPGGA,091256.000,4728.4725,N,01903.4780,E,1,6,2.16,110.6,M,41.1,M,,*59
$GPGSA,A,3,05,09,21,30,07,20,,,,,,,2.37,2.16,0.97*06
$GPRMC,091256.000,A,4728.4725,N,01903.4780,E,1.79,338.82,041125,,,A*64
$GPVTG,338.82,T,,M,1.79,N,3.33,K,A*33
$GPGGA,091257.000,4728.4732,N,01903.4778,E,1,6,2.16,110.6,M,41.1,M,,*59
$GPGSA,A,3,05,09,21,30,07,20,,,,,,,2.37,2.16,0.97*06
$GPRMC,091257.000,A,4728.4732,N,01903.4778,E,1.84,342.37,041125,,,A*65
$GPVTG,342.37,T,,M,1.84,N,3.40,K,A*36
$GPGGA,091258.000,4728.4739,N,01903.4776,E,1,6,2.16,110.6,M,41.1,M,,*53
$GPGSA,A,3,05,09,21,30,07,20,,,,,,,2.37,2.16,0.97*06
$GPGSV,4,1,14,07,76,071,22,30,70,219,30,21,63,282,29,20,58,275,31*7C
$GPGSV,4,2,14,09,39,093,27,05,34,310,28,11,23,243,28,44,19,124,*7D
$GPGSV,4,3,14,13,14,278,21,14,13,173,,16,07,030,13,06,06,208,15*7F
$GPGSV,4,4,14,04,03,096,,27,01,055,*70
$GPRMC,091258.000,A,4728.4739,N,01903.4776,E,1.87,342.01,041125,,,A*69
$GPVTG,342.01,T,,M,1.87,N,3.47,K,A*37
$GPGGA,091259.000,4728.4748,N,01903.4774,E,1,6,2.16,110.6,M,41.1,M,,*56
$GPGSA,A,3,05,09,21,30,07,20,,,,,,,2.37,2.16,0.97*06
$GPRMC,091259.000,A,4728.4748,N,01903.4774,E,2.01,341.93,041125,,,A*69
$GPVTG,341.93,T,,M,2.01,N,3.73,K,A*35
$GPGGA,091300.000,4728.4755,N,01903.4771,E,1,6,2.16,110.6,M,41.1,M,,*52
$GPGSA,A,3,05,09,21,30,07,20,,,,,,,2.37,2.16,0.97*06
$GPRMC,091300.000,A,4728.4755,N,01903.4771,E,2.11,342.50,041125,,,A*60
$GPVTG,342.50,T,,M,2.11,N,3.92,K,A*37
$GPGGA,091301.000,4728.4765,N,01903.4768,E,1,6,2.16,110.4,M,41.1,M,,*5A
$GPGSA,A,3,05,09,21,30,07,20,,,,,,,2.37,2.16,0.97*06
$GPRMC,091301.000,A,4728.4765,N,01903.4768,E,2.35,345.93,041125,,,A*64
$GPVTG,345.93,T,,M,2.35,N,4.35,K,A*33
$GPGGA,091302.000,4728.4773,N,01903.4766,E,1,6,2.86,110.4,M,41.1,M,,*59
$GPGSA,A,3,05,09,21,30,07,20,,,,,,,4.70,2.86,3.73*03
$GPRMC,091302.000,A,4728.4773,N,01903.4766,E,2.37,345.09,041125,,,A*6F
$GPVTG,345.09,T,,M,2.37,N,4.39,K,A*3E
$GPGGA,091303.000,4728.4781,N,01903.4762,E,1,6,2.86,110.4,M,41.1,M,,*51
$GPGSA,A,3,05,09,21,30,07,20,,,,,,,4.70,2.86,3.73*03
$GPGSV,4,1,14,07,76,071,34,30,70,219,31,21,63,282,30,20,58,275,30*73
$GPGSV,4,2,14,09,39,093,22,05,34,310,24,11,23,243,29,44,19,124,*75
$GPGSV,4,3,14,13,14,278,26,14,13,173,,16,07,030,12,06,06,208,13*7F
$GPGSV,4,4,14,04,03,096,,27,01,055,*70
$GPRMC,091303.000,A,4728.4781,N,01903.4762,E,2.45,343.57,041125,,,A*6F
$GPVTG,343.57,T,,M,2.45,N,4.54,K,A*3D
$GPGGA,091304.000,4728.4786,N,01903.4756,E,1,6,2.16,110.4,M,41.1,M,,*5F
$GPGSA,A,3,05,09,21,30,07,20,,,,,,,2.37,2.16,0.97*06
$GPRMC,091304.000,A,4728.4786,N,01903.4756,E,2.38,338.72,041125,,,A*69
$GPVTG,338.72,T,,M,2.38,N,4.42,K,A*3B
$GPGGA,091305.000,4728.4790,N,01903.4749,E,1,6,2.16,110.3,M,41.1,M,,*50
$GPGSA,A,3,05,09,21,30,07,20,,,,,,,2.37,2.16,0.97*06
$GPRMC,091305.000,A,4728.4790,N,01903.4749,E,2.40,333.66,041125,,,A*60
$GPVTG,333.66,T,,M,2.40,N,4.44,K,A*3C
$GPGGA,091306.000,4728.4795,N,01903.4740,E,1,6,2.16,110.3,M,41.1,M,,*5F
$GPGSA,A,3,05,09,21,30,07,20,,,,,,,2.37,2.16,0.97*06
$GPRMC,091306.000,A,4728.4795,N,01903.4740,E,2.46,327.33,041125,,,A*6C
$GPVTG,327.33,T,,M,2.46,N,4.55,K,A*3F
$GPGGA,091307.000,4728.4800,N,01903.4732,E,1,6,2.16,110.2,M,41.1,M,,*59
$GPGSA,A,3,05,09,21,30,07,20,,,,,,,2.37,2.16,0.97*06
$GPRMC,091307.000,A,4728.4800,N,01903.4732,E,2.50,325.54,041125,,,A*6F
$GPVTG,325.54,T,,M,2.50,N,4.64,K,A*39
$GPGGA,091308.000,4728.4805,N,01903.4722,E,1,6,2.16,110.2,M,41.1,M,,*52
$GPGSA,A,3,05,09,21,30,07,20,,,,,,,2.37,2.16,0.97*06
$GPGSV,4,1,14,07,76,071,34,30,70,219,28,21,63,282,28,20,58,275,29*7A
$GPGSV,4,2,14,09,39,093,23,37,35,176,,05,34,310,20,11,23,243,29*7D
$GPGSV,4,3,14,13,14,278,25,14,13,172,21,16,07,030,,06,06,208,14*7A
$GPGSV,4,4,14,04,03,096,,27,01,055,*70
$GPRMC,091308.000,A,4728.4805,N,01903.4722,E,2.58,321.20,041125,,,A*6B
$GPVTG,321.20,T,,M,2.58,N,4.78,K,A*3B
$GPGGA,091309.000,4728.4807,N,01903.4712,E,1,6,2.16,110.1,M,41.1,M,,*51
$GPGSA,A,3,05,09,21,30,07,20,,,,,,,2.37,2.16,0.97*06
$GPRMC,091309.000,A,4728.4807,N,01903.4712,E,2.56,317.94,041125,,,A*6F
$GPVTG,317.94,T,,M,2.56,N,4.75,K,A*32
$GPGGA,091310.000,4728.4810,N,01903.4702,E,1,6,2.16,110.0,M,41.1,M,,*5F
$GPGSA,A,3,05,09,21,30,07,20,,,,,,,2.37,2.16,0.97*06
$GPRMC,091310.000,A,4728.4810,N,01903.4702,E,2.60,314.18,041125,,,A*62
$GPVTG,314.18,T,,M,2.60,N,4.81,K,A*3B
$GPGGA,091311.000,4728.4813,N,01903.4694,E,1,6,2.16,109.9,M,41.1,M,,*52
$GPGSA,A,3,05,09,21,30,07,20,,,,,,,2.37,2.16,0.97*06
$GPRMC,091311.000,A,4728.4813,N,01903.4694,E,2.51,313.32,041125,,,A*63
$GPVTG,313.32,T,,M,2.51,N,4.66,K,A*3F
$GPGGA,091312.000,4728.4815,N,01903.4686,E,1,6,2.17,109.9,M,41.1,M,,*55
$GPGSA,A,3,05,09,21,30,07,20,,,,,,,2.37,2.17,0.97*07
$GPRMC,091312.000,A,4728.4815,N,01903.4686,E,2.45,311.21,041125,,,A*60
$GPVTG,311.21,T,,M,2.45,N,4.54,K,A*3B
$GPGGA,091313.000,4728.4817,N,01903.4678,E,1,6,2.16,109.9,M,41.1,M,,*56
$GPGSA,A,3,05,09,21,30,07,20,,,,,,,2.37,2.16,0.97*06
$GPGSV,4,1,14,07,76,071,33,30,70,219,30,21,63,281,27,20,58,275,29*78
$GPGSV,4,2,14,09,39,093,23,37,35,176,,05,34,310,18,11,23,243,30*7E
$GPGSV,4,3,14,13,14,278,30,14,13,172,30,16,07,030,,06,06,208,14*7E
$GPGSV,4,4,14,04,03,096,,27,01,055,*70
$GPRMC,091313.000,A,4728.4817,N,01903.4678,E,2.44,308.80,041125,,,A*60
$GPVTG,308.80,T,,M,2.44,N,4.52,K,A*3F
$GPGGA,091314.000,4728.4818,N,01903.4671,E,1,6,2.16,109.8,M,41.1,M,,*56
$GPGSA,A,3,05,09,21,30,07,20,,,,,,,2.37,2.16,0.97*06
$GPRMC,091314.000,A,4728.4818,N,01903.4671,E,2.30,307.11,041125,,,A*65
$GPVTG,307.11,T,,M,2.30,N,4.26,K,A*38
$GPGGA,091315.000,4728.4818,N,01903.4663,E,1,6,2.16,109.8,M,41.1,M,,*54
$GPGSA,A,3,05,09,21,30,07,20,,,,,,,2.37,2.16,0.97*06
$GPRMC,091315.000,A,4728.4818,N,01903.4663,E,2.25,302.22,041125,,,A*66
$GPVTG,302.22,T,,M,2.25,N,4.16,K,A*3A
$GPGGA,091316.000,4728.4822,N,01903.4654,E,1,6,2.16,109.8,M,41.1,M,,*5A
$GPGSA,A,3,05,09,21,30,07,20,,,,,,,2.37,2.16,0.97*06
$GPRMC,091316.000,A,4728.4822,N,01903.4654,E,2.24,302.73,041125,,,A*6D
$GPVTG,302.73,T,,M,2.24,N,4.16,K,A*3F
$GPGGA,091317.000,4728.4823,N,01903.4645,E,1,6,2.16,109.8,M,41.1,M,,*5A
$GPGSA,A,3,05,09,21,30,07,20,,,,,,,2.37,2.16,0.97*06
$GPRMC,091317.000,A,4728.4823,N,01903.4645,E,2.19,302.43,041125,,,A*60
$GPVTG,302.43,T,,M,2.19,N,4.07,K,A*32
$GPGGA,091318.000,4728.4824,N,01903.4637,E,1,6,2.16,109.8,M,41.1,M,,*57
$GPGSA,A,3,05,09,21,30,07,20,,,,,,,2.37,2.16,0.97*06
$GPGSV,4,1,14,07,76,071,23,30,70,219,29,21,63,281,28,20,58,275,28*7F
$GPGSV,4,2,14,09,39,093,30,05,34,310,18,39,34,171,,11,23,243,29*7C
$GPGSV,4,3,14,13,14,278,24,14,13,172,26,16,07,030,,06,06,208,14*7C
$GPGSV,4,4,14,04,03,096,,27,01,055,*70
$GPRMC,091318.000,A,4728.4824,N,01903.4637,E,2.14,298.08,041125,,,A*6D
$GPVTG,298.08,T,,M,2.14,N,3.97,K,A*3C
$GPGGA,091319.000,4728.4825,N,01903.4629,E,1,6,2.17,109.8,M,41.1,M,,*59
$GPGSA,A,3,05,09,21,30,07,20,,,,,,,2.37,2.17,0.97*07
$GPRMC,091319.000,A,4728.4825,N,01903.4629,E,2.02,295.86,041125,,,A*6E
$GPVTG,295.86,T,,M,2.02,N,3.75,K,A*3C
$GPGGA,091320.000,4728.4825,N,01903.4621,E,1,6,2.17,109.8,M,41.1,M,,*5B
$GPGSA,A,3,05,09,21,30,07,20,,,,,,,2.37,2.17,0.97*07
$GPRMC,091320.000,A,4728.4825,N,01903.4621,E,1.97,291.27,041125,,,A*6C
$GPVTG,291.27,T,,M,1.97,N,3.65,K,A*3D
$GPGGA,091321.000,4728.4827,N,01903.4617,E,1,6,2.17,109.8,M,41.1,M,,*5D
$GPGSA,A,3,05,09,21,30,07,20,,,,,,,2.37,2.17,0.97*07
$GPRMC,091321.000,A,4728.4827,N,01903.4617,E,1.75,292.31,041125,,,A*62
$GPVTG,292.31,T,,M,1.75,N,3.25,K,A*31
$GPGGA,091322.000,4728.4829,N,01903.4611,E,1,6,2.17,109.8,M,41.1,M,,*56
$GPGSA,A,3,05,09,21,30,07,20,,,,,,,2.37,2.17,0.97*07
$GPRMC,091322.000,A,4728.4829,N,01903.4611,E,1.66,293.92,041125,,,A*63
$GPVTG,293.92,T,,M,1.66,N,3.07,K,A*3B
$GPGGA,091323.000,4728.4829,N,01903.4605,E,1,6,2.17,109.8,M,41.1,M,,*52
$GPGSA,A,3,05,09,21,30,07,20,,,,,,,2.37,2.17,0.97*07
$GPGSV,4,1,14,07,76,071,27,30,70,220,27,21,63,281,25,20,58,275,23*79
$GPGSV,4,2,14,09,39,093,26,05,34,310,19,39,34,171,,11,23,243,28*7B
$GPGSV,4,3,14,13,14,278,25,14,13,172,27,16,07,030,14,06,06,208,17*7A
$GPGSV,4,4,14,04,03,096,,27,01,055,*70
$GPRMC,091323.000,A,4728.4829,N,01903.4605,E,1.64,292.03,041125,,,A*6C
$GPVTG,292.03,T,,M,1.64,N,3.04,K,A*33
$GPGGA,091324.000,4728.4829,N,01903.4601,E,1,6,2.17,109.7,M,41.1,M,,*5E
$GPGSA,A,3,05,09,21,30,07,20,,,,,,,2.37,2.17,0.97*07
$GPRMC,091324.000,A,4728.4829,N,01903.4601,E,1.55,290.13,041125,,,A*6E
$GPVTG,290.13,T,,M,1.55,N,2.88,K,A*37
$GPGGA,091325.000,4728.4825,N,01903.4591,E,1,6,2.17,109.7,M,41.1,M,,*59
$GPGSA,A,3,05,09,21,30,07,20,,,,,,,2.37,2.17,0.97*07
$GPRMC,091325.000,A,4728.4825,N,01903.4591,E,2.04,277.73,041125,,,A*61
$GPVTG,277.73,T,,M,2.04,N,3.79,K,A*30
$GPGGA,091326.000,4728.4824,N,01903.4582,E,1,6,2.17,109.6,M,41.1,M,,*58
$GPGSA,A,3,05,09,21,30,07,20,,,,,,,2.37,2.17,0.97*07
$GPRMC,091326.000,A,4728.4824,N,01903.4582,E,2.24,281.94,041125,,,A*63
$GPVTG,281.94,T,,M,2.24,N,4.14,K,A*3E
$GPGGA,091327.000,4728.4822,N,01903.4573,E,1,6,2.17,109.5,M,41.1,M,,*52
$GPGSA,A,3,05,09,21,30,07,20,,,,,,,2.37,2.17,0.97*07
$GPRMC,091327.000,A,4728.4822,N,01903.4573,E,2.27,275.87,041125,,,A*60
$GPVTG,275.87,T,,M,2.27,N,4.21,K,A*32
$GPGGA,091328.000,4728.4821,N,01903.4563,E,1,6,2.17,109.5,M,41.1,M,,*5F
$GPGSA,A,3,05,09,21,30,07,20,,,,,,,2.37,2.17,0.97*07
$GPGSV,4,1,14,07,76,071,33,30,70,220,23,21,63,281,26,20,58,275,26*7E
$GPGSV,4,2,14,09,39,093,23,05,34,310,20,33,25,222,,11,23,243,28*7B
$GPGSV,4,3,14,13,14,278,24,14,13,172,26,16,07,030,,06,06,208,17*7F
$GPGSV,4,4,14,04,03,096,,27,01,055,*70
$GPRMC,091328.000,A,4728.4821,N,01903.4563,E,2.27,272.88,041125,,,A*65
$GPVTG,272.88,T,,M,2.27,N,4.20,K,A*3B
$GPGGA,091329.000,4728.4819,N,01903.4553,E,1,6,2.17,109.4,M,41.1,M,,*57
$GPGSA,A,3,05,09,21,30,07,20,,,,,,,2.37,2.17,0.97*07
$GPRMC,091329.000,A,4728.4819,N,01903.4553,E,2.22,269.17,041125,,,A*65
$GPVTG,269.17,T,,M,2.22,N,4.10,K,A*31
$GPGGA,091330.000,4728.4826,N,01903.4545,E,1,6,2.17,109.3,M,41.1,M,,*53
$GPGSA,A,3,05,09,21,30,07,20,,,,,,,2.37,2.17,0.97*07
$GPRMC,091330.000,A,4728.4826,N,01903.4545,E,2.43,289.71,041125,,,A*6F
$GPVTG,289.71,T,,M,2.43,N,4.51,K,A*3D
$GPGGA,091331.000,4728.4838,N,01903.4539,E,1,6,2.17,109.2,M,41.1,M,,*57
$GPGSA,A,3,05,09,21,30,07,20,,,,,,,2.37,2.17,0.97*07
$GPRMC,091331.000,A,4728.4838,N,01903.4539,E,2.67,324.23,041125,,,A*6D
$GPVTG,324.23,T,,M,2.67,N,4.95,K,A*32
$GPGGA,091332.000,4728.4841,N,01903.4529,E,1,6,2.17,109.2,M,41.1,M,,*5B
$GPGSA,A,3,05,09,21,30,07,20,,,,,,,2.37,2.17,0.97*07
$GPRMC,091332.000,A,4728.4841,N,01903.4529,E,2.71,316.11,041125,,,A*66
$GPVTG,316.11,T,,M,2.71,N,5.03,K,A*3B
$GPGGA,091333.000,4728.4844,N,01903.4521,E,1,6,2.17,109.0,M,41.1,M,,*55
$GPGSA,A,3,05,09,21,30,07,20,,,,,,,2.37,2.17,0.97*07
$GPGSV,4,1,14,07,76,071,30,30,70,220,30,21,63,281,26,20,58,275,25*7C
$GPGSV,4,2,14,09,39,093,23,05,34,310,21,33,25,222,,11,23,243,30*73
$GPGSV,4,3,14,13,14,278,24,14,13,172,29,16,07,030,,06,05,208,18*7C
$GPGSV,4,4,14,04,03,096,,27,01,055,*70
$GPRMC,091333.000,A,4728.4844,N,01903.4521,E,2.53,321.42,041125,,,A*68
$GPVTG,321.42,T,,M,2.53,N,4.68,K,A*35
$GPGGA,091334.000,4728.4844,N,01903.4515,E,1,6,2.17,108.9,M,41.1,M,,*5D
$GPGSA,A,3,05,09,21,30,07,20,,,,,,,2.37,2.17,0.97*07
$GPRMC,091334.000,A,4728.4844,N,01903.4515,E,2.00,305.78,041125,,,A*61
$GPVTG,305.78,T,,M,2.00,N,3.71,K,A*33
$GPGGA,091335.000,4728.4838,N,01903.4507,E,1,6,2.17,108.8,M,41.1,M,,*55
$GPGSA,A,3,05,09,21,30,07,20,,,,,,,2.37,2.17,0.97*07
$GPRMC,091335.000,A,4728.4838,N,01903.4507,E,1.98,260.07,041125,,,A*60
$GPVTG,260.07,T,,M,1.98,N,3.66,K,A*3D
$GPGGA,091336.000,4728.4835,N,01903.4497,E,1,6,2.17,108.8,M,41.1,M,,*53
$GPGSA,A,3,05,09,21,30,07,20,,,,,,,2.37,2.17,0.97*07
$GPRMC,091336.000,A,4728.4835,N,01903.4497,E,2.50,252.45,041125,,,A*66
$GPVTG,252.45,T,,M,2.50,N,4.62,K,A*3E
$GPGGA,091337.000,4728.4837,N,01903.4490,E,1,6,2.17,108.7,M,41.1,M,,*58
$GPGSA,A,3,05,09,21,30,07,20,,,,,,,2.37,2.17,0.97*07
$GPRMC,091337.000,A,4728.4837,N,01903.4490,E,2.15,268.85,041125,,,A*66
$GPVTG,268.85,T,,M,2.15,N,3.99,K,A*39
$GPGGA,091338.000,4728.4844,N,01903.4482,E,1,6,2.17,108.6,M,41.1,M,,*51
$GPGSA,A,3,05,09,21,30,07,20,,,,,,,2.37,2.17,0.97*07
$GPGSV,4,1,14,07,76,070,27,30,70,220,29,21,63,281,28,20,58,275,26*7E
$GPGSV,4,2,14,09,39,093,22,05,34,310,20,11,23,243,27,40,20,126,*73
$GPGSV,4,3,14,13,14,278,22,14,13,172,26,16,07,030,,06,05,208,18*75
$GPGSV,4,4,14,04,03,096,,27,01,055,*70
$GPRMC,091338.000,A,4728.4844,N,01903.4482,E,2.25,289.40,041125,,,A*6B
$GPVTG,289.40,T,,M,2.25,N,4.17,K,A*3D
$GPGGA,091339.000,4728.4842,N,01903.4473,E,1,6,2.17,108.6,M,41.1,M,,*58
$GPGSA,A,3,05,09,21,30,07,20,,,,,,,2.37,2.17,0.97*07
$GPRMC,091339.000,A,4728.4842,N,01903.4473,E,2.56,259.73,041125,,,A*6B
$GPVTG,259.73,T,,M,2.56,N,4.74,K,A*31
$GPGGA,091340.000,4728.4845,N,01903.4465,E,1,6,2.17,108.6,M,41.1,M,,*56
$GPGSA,A,3,05,09,21,30,07,20,,,,,,,2.38,2.17,0.97*08
$GPRMC,091340.000,A,4728.4845,N,01903.4465,E,2.19,277.09,041125,,,A*6F
$GPVTG,277.09,T,,M,2.19,N,4.06,K,A*3E
$GPGGA,091341.000,4728.4855,N,01903.4457,E,1,6,2.17,108.5,M,41.1,M,,*54
$GPGSA,A,3,05,09,21,30,07,20,,,,,,,2.38,2.17,0.97*08
$GPRMC,091341.000,A,4728.4855,N,01903.4457,E,2.58,297.30,041125,,,A*6F
$GPVTG,297.30,T,,M,2.58,N,4.79,K,A*37
$GPGGA,091342.000,4728.4852,N,01903.4447,E,1,6,2.17,108.6,M,41.1,M,,*52
$GPGSA,A,3,05,09,21,30,07,20,,,,,,,2.38,2.17,0.97*08
$GPRMC,091342.000,A,4728.4852,N,01903.4447,E,2.37,273.21,041125,,,A*69
$GPVTG,273.21,T,,M,2.37,N,4.39,K,A*30
$GPGGA,091343.000,4728.4859,N,01903.4439,E,1,6,2.17,108.5,M,41.1,M,,*52
$GPGSA,A,3,05,09,21,30,07,20,,,,,,,2.38,2.17,0.97*08
$GPGSV,4,1,14,07,76,070,34,30,70,220,31,21,63,281,27,20,58,275,30*7D
$GPGSV,4,2,14,09,39,093,20,05,34,310,21,11,23,243,25,40,20,126,*72
$GPGSV,4,3,14,13,15,278,20,14,13,172,24,16,07,030,,06,05,208,16*7A
$GPGSV,4,4,14,04,03,096,,27,01,055,*70
$GPRMC,091343.000,A,4728.4859,N,01903.4439,E,2.51,302.74,041125,,,A*6D
$GPVTG,302.74,T,,M,2.51,N,4.65,K,A*3E
$GPGGA,091344.000,4728.4867,N,01903.4430,E,1,6,2.17,108.5,M,41.1,M,,*51
$GPGSA,A,3,05,09,21,30,07,20,,,,,,,2.38,2.17,0.97*08
$GPRMC,091344.000,A,4728.4867,N,01903.4430,E,2.84,302.50,041125,,,A*60
$GPVTG,302.50,T,,M,2.84,N,5.27,K,A*37
$GPGGA,091345.000,4728.4872,N,01903.4421,E,1,6,2.17,108.5,M,41.1,M,,*54
$GPGSA,A,3,05,09,21,30,07,20,,,,,,,2.38,2.17,0.97*08
$GPRMC,091345.000,A,4728.4872,N,01903.4421,E,2.68,298.82,041125,,,A*6A
$GPVTG,298.82,T,,M,2.68,N,4.97,K,A*32
$GPGGA,091346.000,4728.4876,N,01903.4413,E,1,6,2.17,108.5,M,41.1,M,,*52
$GPGSA,A,3,05,09,21,30,07,20,,,,,,,2.38,2.17,0.97*08
$GPRMC,091346.000,A,4728.4876,N,01903.4413,E,2.08,299.88,041125,,,A*61
$GPVTG,299.88,T,,M,2.08,N,3.85,K,A*3B
$GPGGA,091347.000,4728.4880,N,01903.4407,E,1,6,2.17,108.4,M,41.1,M,,*5E
$GPGSA,A,3,05,09,21,30,07,20,,,,,,,2.38,2.17,0.97*08
$GPRMC,091347.000,A,4728.4880,N,01903.4407,E,2.16,293.19,041125,,,A*61
$GPVTG,293.19,T,,M,2.16,N,4.01,K,A*3D
$GPGGA,091348.000,4728.4888,N,01903.4397,E,1,6,2.17,108.4,M,41.1,M,,*57
$GPGSA,A,3,05,09,21,30,07,20,,,,,,,2.38,2.17,0.97*08
$GPGSV,4,1,14,07,76,070,31,30,70,220,29,21,63,281,29,20,58,274,28*77
$GPGSV,4,2,14,09,39,093,28,05,34,310,22,11,23,243,31,44,19,124,*70
$GPGSV,4,3,14,13,15,278,19,14,13,172,24,16,07,030,,06,05,208,15*73
$GPGSV,4,4,14,04,03,096,,27,01,055,*70
$GPRMC,091348.000,A,4728.4888,N,01903.4397,E,2.74,310.41,041125,,,A*6B
$GPVTG,310.41,T,,M,2.74,N,5.07,K,A*39
$GPGGA,091349.000,4728.4892,N,01903.4390,E,1,6,2.17,108.3,M,41.1,M,,*5D
$GPGSA,A,3,05,09,21,30,07,20,,,,,,,2.38,2.17,0.97*08
$GPRMC,091349.000,A,4728.4892,N,01903.4390,E,2.54,313.85,041125,,,A*6F
$GPVTG,313.85,T,,M,2.54,N,4.71,K,A*30
$GPGGA,091350.000,4728.4896,N,01903.4383,E,1,6,2.17,108.3,M,41.1,M,,*53
$GPGSA,A,3,05,09,21,30,07,20,,,,,,,2.38,2.17,0.97*08
$GPRMC,091350.000,A,4728.4896,N,01903.4383,E,2.39,311.30,041125,,,A*66
$GPVTG,311.30,T,,M,2.39,N,4.43,K,A*36
$GPGGA,091351.000,4728.4899,N,01903.4376,E,1,6,2.17,108.3,M,41.1,M,,*57
$GPGSA,A,3,05,09,21,30,07,20,,,,,,,2.38,2.17,0.97*08
$GPRMC,091351.000,A,4728.4899,N,01903.4376,E,2.16,309.12,041125,,,A*66
$GPVTG,309.12,T,,M,2.16,N,4.01,K,A*34
$GPGGA,091352.000,4728.4902,N,01903.4368,E,1,6,2.17,108.4,M,41.1,M,,*5F
$GPGSA,A,3,05,09,21,30,07,20,,,,,,,2.38,2.17,0.97*08
$GPRMC,091352.000,A,4728.4902,N,01903.4368,E,2.20,293.67,041125,,,A*6C
$GPVTG,293.67,T,,M,2.20,N,4.09,K,A*39
$GPGGA,091353.000,4728.4903,N,01903.4358,E,1,6,2.17,108.4,M,41.1,M,,*5C
$GPGSA,A,3,05,09,21,30,07,20,,,,,,,2.38,2.17,0.97*08
$GPGSV,4,1,14,07,76,070,33,30,70,220,30,21,63,281,26,20,58,274,28*72
$GPGSV,4,2,14,09,39,093,21,05,34,310,20,11,23,243,30,13,15,278,18*77
$GPGSV,4,3,14,14,13,172,27,16,07,030,,06,05,208,13,04,03,096,*7D
$GPGSV,4,4,14,27,01,055,,34,,,*4F
$GPRMC,091353.000,A,4728.4903,N,01903.4358,E,2.41,290.18,041125,,,A*63
$GPVTG,290.18,T,,M,2.41,N,4.47,K,A*3F
$GPGGA,091354.000,4728.4910,N,01903.4347,E,1,6,2.17,108.4,M,41.1,M,,*57
$GPGSA,A,3,05,09,21,30,07,20,,,,,,,2.38,2.17,0.97*08
$GPRMC,091354.000,A,4728.4910,N,01903.4347,E,2.55,305.64,041125,,,A*6B
$GPVTG,305.64,T,,M,2.55,N,4.73,K,A*3B
$GPGGA,091355.000,4728.4912,N,01903.4337,E,1,6,2.17,108.3,M,41.1,M,,*54
$GPGSA,A,3,05,09,21,30,07,20,,,,,,,2.38,2.17,0.97*08
$GPRMC,091355.000,A,4728.4912,N,01903.4337,E,2.45,289.84,041125,,,A*65
$GPVTG,289.84,T,,M,2.45,N,4.53,K,A*33
$GPGGA,091356.000,4728.4915,N,01903.4325,E,1,6,2.17,108.3,M,41.1,M,,*53
$GPGSA,A,3,05,09,21,30,07,20,,,,,,,2.38,2.17,0.97*08
$GPRMC,091356.000,A,4728.4915,N,01903.4325,E,2.58,292.67,041125,,,A*69
$GPVTG,292.67,T,,M,2.58,N,4.79,K,A*30
$GPGGA,091357.000,4728.4919,N,01903.4315,E,1,6,2.17,108.3,M,41.1,M,,*5D
$GPGSA,A,3,05,09,21,30,07,20,,,,,,,2.38,2.17,0.97*08
$GPRMC,091357.000,A,4728.4919,N,01903.4315,E,2.43,292.09,041125,,,A*65
$GPVTG,292.09,T,,M,2.43,N,4.50,K,A*39
$GPGGA,091358.000,4728.4918,N,01903.4305,E,1,6,2.17,108.3,M,41.1,M,,*52
$GPGSA,A,3,05,09,21,30,07,20,,,,,,,2.38,2.17,0.97*08
$GPGSV,4,1,14,07,76,070,33,30,70,220,30,21,63,281,29,20,58,274,29*7C
$GPGSV,4,2,14,09,39,093,22,05,34,310,19,11,23,243,30,13,15,278,19*7F
$GPGSV,4,3,14,14,13,172,24,16,07,030,,06,05,208,14,04,03,096,*79
$GPGSV,4,4,14,27,01,055,,34,,,*4F
$GPRMC,091358.000,A,4728.4918,N,01903.4305,E,2.57,281.00,041125,,,A*64
$GPVTG,281.00,T,,M,2.57,N,4.77,K,A*32
$GPGGA,091359.000,4728.4918,N,01903.4293,E,1,6,2.17,108.3,M,41.1,M,,*5D
$GPGSA,A,3,05,09,21,30,07,20,,,,,,,2.38,2.17,0.97*08
$GPRMC,091359.000,A,4728.4918,N,01903.4293,E,2.78,279.38,041125,,,A*6A
$GPVTG,279.38,T,,M,2.78,N,5.14,K,A*37
$GPGGA,091400.000,4728.4916,N,01903.4283,E,1,6,2.18,108.3,M,41.1,M,,*56
$GPGSA,A,3,05,09,21,30,07,20,,,,,,,2.38,2.18,0.97*07
$GPRMC,091400.000,A,4728.4916,N,01903.4283,E,2.47,270.65,041125,,,A*63
$GPVTG,270.65,T,,M,2.47,N,4.58,K,A*33
$GPGGA,091401.000,4728.4916,N,01903.4274,E,1,7,1.55,108.3,M,41.1,M,,*54
$GPGSA,A,3,05,09,21,30,07,11,20,,,,,,1.78,1.55,0.89*05
$GPRMC,091401.000,A,4728.4916,N,01903.4274,E,1.87,276.41,041125,,,A*65
$GPVTG,276.41,T,,M,1.87,N,3.46,K,A*34
$GPGGA,091402.000,4728.4918,N,01903.4268,E,1,7,1.55,108.4,M,41.1,M,,*53
$GPGSA,A,3,05,09,21,30,07,11,20,,,,,,1.78,1.55,0.89*05
$GPRMC,091402.000,A,4728.4918,N,01903.4268,E,1.35,276.77,041125,,,A*69
$GPVTG,276.77,T,,M,1.35,N,2.50,K,A*3E
$GPGGA,091403.000,4728.4915,N,01903.4263,E,1,7,1.55,108.5,M,41.1,M,,*55
$GPGSA,A,3,05,09,21,30,07,11,20,,,,,,1.78,1.55,0.89*05
$GPGSV,4,1,14,07,76,070,32,30,70,220,29,21,63,281,24,20,58,274,24*75
$GPGSV,4,2,14,09,39,093,30,05,34,310,20,11,23,243,20,13,15,278,18*76
$GPGSV,4,3,14,14,13,172,27,16,07,030,,06,05,208,12,04,03,096,*7C
$GPGSV,4,4,14,27,01,055,,35,,,*4E
$GPRMC,091403.000,A,4728.4915,N,01903.4263,E,1.03,201.69,041125,,,A*64
$GPVTG,201.69,T,,M,1.03,N,1.91,K,A*3A
$GPGGA,091404.000,4728.4910,N,01903.4261,E,1,7,1.55,108.6,M,41.1,M,,*56
$GPGSA,A,3,05,09,21,30,07,11,20,,,,,,1.78,1.55,0.89*05
$GPRMC,091404.000,A,4728.4910,N,01903.4261,E,2.34,164.47,041125,,,A*6F
$GPVTG,164.47,T,,M,2.34,N,4.34,K,A*3B
$GPGGA,091405.000,4728.4900,N,01903.4258,E,1,7,1.55,108.9,M,41.1,M,,*53
$GPGSA,A,3,05,09,21,30,07,11,20,,,,,,1.79,1.55,0.89*04
$GPRMC,091405.000,A,4728.4900,N,01903.4258,E,2.96,193.83,041125,,,A*6D
$GPVTG,193.83,T,,M,2.96,N,5.49,K,A*38
$GPGGA,091406.000,4728.4896,N,01903.4250,E,1,7,1.55,109.1,M,41.1,M,,*5F
$GPGSA,A,3,05,09,21,30,07,11,20,,,,,,1.78,1.55,0.89*05
$GPRMC,091406.000,A,4728.4896,N,01903.4250,E,2.99,220.35,041125,,,A*61
$GPVTG,220.35,T,,M,2.99,N,5.53,K,A*3A
$GPGGA,091407.000,4728.4893,N,01903.4240,E,1,7,1.55,109.3,M,41.1,M,,*58
$GPGSA,A,3,05,09,21,30,07,11,20,,,,,,1.78,1.55,0.89*05
$GPRMC,091407.000,A,4728.4893,N,01903.4240,E,2.60,228.32,041125,,,A*6D
$GPVTG,228.32,T,,M,2.60,N,4.82,K,A*3E
$GPGGA,091408.000,4728.4889,N,01903.4230,E,1,7,1.55,109.5,M,41.1,M,,*5D
$GPGSA,A,3,05,09,21,30,07,11,20,,,,,,1.79,1.55,0.89*04
$GPGSV,4,1,14,07,76,070,31,30,70,220,28,21,63,281,23,20,58,274,25*71
$GPGSV,4,2,14,09,39,093,20,05,35,310,21,11,23,243,20,13,15,278,19*76
$GPGSV,4,3,14,14,13,172,23,16,07,030,,06,05,208,,04,02,096,*7A
$GPGSV,4,4,14,27,01,055,,36,,,*4D
$GPRMC,091408.000,A,4728.4889,N,01903.4230,E,2.63,231.45,041125,,,A*65
$GPVTG,231.45,T,,M,2.63,N,4.88,K,A*3F
$GPGGA,091409.000,4728.4888,N,01903.4218,E,1,7,1.55,109.7,M,41.1,M,,*55
$GPGSA,A,3,05,09,21,30,07,11,20,,,,,,1.78,1.55,0.89*05
$GPRMC,091409.000,A,4728.4888,N,01903.4218,E,2.53,236.32,041125,,,A*6B
$GPVTG,236.32,T,,M,2.53,N,4.69,K,A*34
$GPGGA,091410.000,4728.4882,N,01903.4204,E,1,7,1.55,109.9,M,41.1,M,,*54
$GPGSA,A,3,05,09,21,30,07,11,20,,,,,,1.78,1.55,0.89*05
$GPRMC,091410.000,A,4728.4882,N,01903.4204,E,3.42,230.86,041125,,,A*6C
$GPVTG,230.86,T,,M,3.42,N,6.34,K,A*36
$GPGGA,091411.000,4728.4878,N,01903.4190,E,1,7,1.55,110.0,M,41.1,M,,*5F
$GPGSA,A,3,05,09,21,30,07,11,20,,,,,,1.78,1.55,0.89*05
$GPRMC,091411.000,A,4728.4878,N,01903.4190,E,3.71,231.58,041125,,,A*64
$GPVTG,231.58,T,,M,3.71,N,6.88,K,A*33
$GPGGA,091412.000,4728.4873,N,01903.4178,E,1,7,1.55,110.0,M,41.1,M,,*51
$GPGSA,A,3,05,09,21,30,07,11,20,,,,,,1.78,1.55,0.89*05
$GPRMC,091412.000,A,4728.4873,N,01903.4178,E,3.45,228.63,041125,,,A*6D
$GPVTG,228.63,T,,M,3.45,N,6.40,K,A*30
$GPGGA,091413.000,4728.4870,N,01903.4169,E,1,7,1.55,110.1,M,41.1,M,,*52
$GPGSA,A,3,05,09,21,30,07,11,20,,,,,,1.79,1.55,0.89*04
$GPGSV,4,1,14,07,76,070,34,30,70,220,30,21,63,281,27,20,58,274,26*7A
$GPGSV,4,2,14,09,39,094,23,05,35,310,20,11,23,243,22,13,15,278,20*7B
$GPGSV,4,3,14,14,13,172,24,16,07,030,,06,05,208,,04,02,096,*7D
$GPGSV,4,4,14,27,01,055,,38,,,*43
$GPRMC,091413.000,A,4728.4870,N,01903.4169,E,2.62,230.28,041125,,,A*6D
$GPVTG,230.28,T,,M,2.62,N,4.85,K,A*39
$GPGGA,091414.000,4728.4870,N,01903.4159,E,1,7,1.55,110.1,M,41.1,M,,*56
$GPGSA,A,3,05,09,21,30,07,11,20,,,,,,1.79,1.55,0.89*04
$GPRMC,091414.000,A,4728.4870,N,01903.4159,E,2.26,241.28,041125,,,A*6F
$GPVTG,241.28,T,,M,2.26,N,4.19,K,A*3A
$GPGGA,091415.000,4728.4865,N,01903.4150,E,1,7,1.55,110.1,M,41.1,M,,*5A
$GPGSA,A,3,05,09,21,30,07,11,20,,,,,,1.78,1.55,0.89*05
$GPRMC,091415.000,A,4728.4865,N,01903.4150,E,2.41,232.66,041125,,,A*6C
$GPVTG,232.66,T,,M,2.41,N,4.46,K,A*3F
$GPGGA,091416.000,4728.4865,N,01903.4143,E,1,7,1.55,110.2,M,41.1,M,,*58
$GPGSA,A,3,05,09,21,30,07,11,20,,,,,,1.78,1.55,0.89*05
$GPRMC,091416.000,A,4728.4865,N,01903.4143,E,2.00,239.57,041125,,,A*61
$GPVTG,239.57,T,,M,2.00,N,3.70,K,A*31
$GPGGA,091417.000,4728.4860,N,01903.4136,E,1,7,1.55,110.2,M,41.1,M,,*5E
$GPGSA,A,3,05,09,21,30,07,11,20,,,,,,1.78,1.55,0.89*05
$GPRMC,091417.000,A,4728.4860,N,01903.4136,E,2.21,229.96,041125,,,A*68
$GPVTG,229.96,T,,M,2.21,N,4.09,K,A*37
$GPGGA,091418.000,4728.4861,N,01903.4129,E,1,7,1.55,110.3,M,41.1,M,,*5F
$GPGSA,A,3,05,09,21,30,07,11,20,,,,,,1.79,1.55,0.89*04
$GPGSV,4,1,14,07,76,070,29,30,70,220,29,21,63,281,27,20,58,274,27*7F
$GPGSV,4,2,14,09,39,094,21,05,35,310,20,11,23,242,21,13,15,278,19*71
$GPGSV,4,3,14,14,14,172,23,16,07,030,,06,05,208,,04,02,096,*7D
$GPGSV,4,4,14,27,01,055,,38,,,*43
$GPRMC,091418.000,A,4728.4861,N,01903.4129,E,2.15,249.91,041125,,,A*6E
$GPVTG,249.91,T,,M,2.15,N,3.98,K,A*3E
$GPGGA,091419.000,4728.4861,N,01903.4123,E,1,7,1.55,110.3,M,41.1,M,,*54
$GPGSA,A,3,05,09,21,30,07,11,20,,,,,,1.78,1.55,0.89*05
$GPRMC,091419.000,A,4728.4861,N,01903.4123,E,2.09,248.73,041125,,,A*65
$GPVTG,248.73,T,,M,2.09,N,3.87,K,A*30
$GPGGA,091420.000,4728.4859,N,01903.4113,E,1,7,1.55,110.3,M,41.1,M,,*56
$GPGSA,A,3,05,09,21,30,07,11,20,,,,,,1.78,1.55,0.89*05
$GPRMC,091420.000,A,4728.4859,N,01903.4113,E,2.31,233.02,041125,,,A*66
$GPVTG,233.02,T,,M,2.31,N,4.27,K,A*3C
$GPGGA,091421.000,4728.4857,N,01903.4103,E,1,7,1.55,110.3,M,41.1,M,,*58
$GPGSA,A,3,05,09,21,30,07,11,20,,,,,,1.79,1.55,0.89*04
$GPRMC,091421.000,A,4728.4857,N,01903.4103,E,2.29,230.64,041125,,,A*62
$GPVTG,230.64,T,,M,2.29,N,4.25,K,A*34
$GPGGA,091422.000,4728.4855,N,01903.4093,E,1,7,1.55,110.2,M,41.1,M,,*50
$GPGSA,A,3,05,09,21,30,07,11,20,,,,,,1.79,1.55,0.89*04
$GPRMC,091422.000,A,4728.4855,N,01903.4093,E,2.62,231.31,041125,,,A*65
$GPVTG,231.31,T,,M,2.62,N,4.86,K,A*33
$GPGGA,091423.000,4728.4851,N,01903.4085,E,1,7,1.55,110.1,M,41.1,M,,*51
$GPGSA,A,3,05,09,21,30,07,11,20,,,,,,1.79,1.55,0.89*04
$GPGSV,4,1,14,07,76,070,35,30,70,220,30,21,63,281,31,20,58,274,29*73
$GPGSV,4,2,14,09,39,094,20,05,35,310,20,11,23,242,20,13,15,278,22*79
$GPGSV,4,3,14,14,14,172,23,16,06,030,,06,05,208,,04,02,096,*7C
$GPGSV,4,4,14,27,01,055,,41,,,*4D
$GPRMC,091423.000,A,4728.4851,N,01903.4085,E,2.55,227.72,041125,,,A*63
$GPVTG,227.72,T,,M,2.55,N,4.72,K,A*3C
$GPGGA,091424.000,4728.4847,N,01903.4077,E,1,7,1.55,110.1,M,41.1,M,,*5C
$GPGSA,A,3,05,09,21,30,07,11,20,,,,,,1.79,1.55,0.89*04
$GPRMC,091424.000,A,4728.4847,N,01903.4077,E,3.04,232.72,041125,,,A*6F
$GPVTG,232.72,T,,M,3.04,N,5.64,K,A*3B
$GPGGA,091425.000,4728.4837,N,01903.4068,E,1,7,1.55,110.0,M,41.1,M,,*55
$GPGSA,A,3,05,09,21,30,07,11,20,,,,,,1.79,1.55,0.89*04
$GPRMC,091425.000,A,4728.4837,N,01903.4068,E,3.72,223.57,041125,,,A*61
$GPVTG,223.57,T,,M,3.72,N,6.89,K,A*3D
$GPGGA,091426.000,4728.4835,N,01903.4059,E,1,7,1.55,110.0,M,41.1,M,,*56
$GPGSA,A,3,05,09,21,30,07,11,20,,,,,,1.79,1.55,0.89*04
$GPRMC,091426.000,A,4728.4835,N,01903.4059,E,2.79,226.94,041125,,,A*62
$GPVTG,226.94,T,,M,2.79,N,5.16,K,A*38
$GPGGA,091427.000,4728.4836,N,01903.4049,E,1,7,1.55,110.0,M,41.1,M,,*55
$GPGSA,A,3,05,09,21,30,07,11,20,,,,,,1.79,1.55,0.89*04
$GPRMC,091427.000,A,4728.4836,N,01903.4049,E,2.41,242.96,041125,,,A*6A
$GPVTG,242.96,T,,M,2.41,N,4.47,K,A*36
$GPGGA,091428.000,4728.4835,N,01903.4040,E,1,7,1.55,110.0,M,41.1,M,,*50
$GPGSA,A,3,05,09,21,30,07,11,20,,,,,,1.79,1.55,0.89*04
$GPGSV,4,1,14,07,76,070,34,30,70,220,31,21,64,280,31,20,58,274,31*7C
$GPGSV,4,2,14,09,39,094,19,05,35,310,19,11,23,242,18,13,15,278,20*70
$GPGSV,4,3,14,14,14,172,24,16,06,030,,06,05,208,,04,02,096,*7B
$GPGSV,4,4,14,27,01,055,,43,,,*4F
$GPRMC,091428.000,A,4728.4835,N,01903.4040,E,2.52,242.21,041125,,,A*61
$GPVTG,242.21,T,,M,2.52,N,4.68,K,A*35
$GPGGA,091429.000,4728.4830,N,01903.4030,E,1,7,1.55,109.9,M,41.1,M,,*52
$GPGSA,A,3,05,09,21,30,07,11,20,,,,,,1.79,1.55,0.89*04
$GPRMC,091429.000,A,4728.4830,N,01903.4030,E,2.79,234.18,041125,,,A*60
$GPVTG,234.18,T,,M,2.79,N,5.17,K,A*3E
$GPGGA,091430.000,4728.4829,N,01903.4023,E,1,7,1.55,109.9,M,41.1,M,,*50
$GPGSA,A,3,05,09,21,30,07,11,20,,,,,,1.79,1.55,0.89*04
$GPRMC,091430.000,A,4728.4829,N,01903.4023,E,1.94,243.44,041125,,,A*6B
$GPVTG,243.44,T,,M,1.94,N,3.59,K,A*3B
$GPGGA,091431.000,4728.4825,N,01903.4015,E,1,7,1.55,110.0,M,41.1,M,,*59
$GPGSA,A,3,05,09,21,30,07,11,20,,,,,,1.79,1.55,0.89*04
$GPRMC,091431.000,A,4728.4825,N,01903.4015,E,1.90,238.69,041125,,,A*64
$GPVTG,238.69,T,,M,1.90,N,3.53,K,A*36
$GPGGA,091432.000,4728.4824,N,01903.4006,E,1,7,1.55,110.1,M,41.1,M,,*58
$GPGSA,A,3,05,09,21,30,07,11,20,,,,,,1.79,1.55,0.89*04
$GPRMC,091432.000,A,4728.4824,N,01903.4006,E,2.30,223.71,041125,,,A*6E
$GPVTG,223.71,T,,M,2.30,N,4.26,K,A*39
$GPGGA,091433.000,4728.4823,N,01903.4001,E,1,7,1.55,110.1,M,41.1,M,,*59
$GPGSA,A,3,05,09,21,30,07,11,20,,,,,,1.79,1.55,0.89*04
$GPGSV,4,1,14,07,76,070,32,30,70,220,31,21,64,280,33,20,58,274,27*7F
$GPGSV,4,2,14,09,39,094,29,05,35,310,20,11,23,242,18,13,15,278,19*73
$GPGSV,4,3,14,14,14,172,25,16,06,030,,06,05,208,,04,02,096,*7A
$GPGSV,4,4,14,27,01,055,,45,,,*49
$GPRMC,091433.000,A,4728.4823,N,01903.4001,E,1.82,205.56,041125,,,A*64
$GPVTG,205.56,T,,M,1.82,N,3.36,K,A*34
$GPGGA,091434.000,4728.4823,N,01903.3998,E,1,7,1.55,110.2,M,41.1,M,,*53
$GPGSA,A,3,05,09,21,30,07,11,20,,,,,,1.79,1.55,0.89*04
$GPRMC,091434.000,A,4728.4823,N,01903.3998,E,1.35,216.32,041125,,,A*61
$GPVTG,216.32,T,,M,1.35,N,2.49,K,A*31
$GPGGA,091435.000,4728.4820,N,01903.3995,E,1,7,1.55,110.2,M,41.1,M,,*5C
$GPGSA,A,3,05,09,21,30,07,11,20,,,,,,1.78,1.55,0.89*05
$GPRMC,091435.000,A,4728.4820,N,01903.3995,E,1.95,218.29,041125,,,A*60
$GPVTG,218.29,T,,M,1.95,N,3.62,K,A*37
$GPGGA,091436.000,4728.4813,N,01903.3990,E,1,7,1.55,110.2,M,41.1,M,,*5A
$GPGSA,A,3,05,09,21,30,07,11,20,,,,,,1.79,1.55,0.89*04
$GPRMC,091436.000,A,4728.4813,N,01903.3990,E,2.95,211.75,041125,,,A*65
$GPVTG,211.75,T,,M,2.95,N,5.46,K,A*34
$GPGGA,091437.000,4728.4808,N,01903.3987,E,1,7,1.55,110.2,M,41.1,M,,*57
$GPGSA,A,3,05,09,21,30,07,11,20,,,,,,1.79,1.55,0.89*04
$GPRMC,091437.000,A,4728.4808,N,01903.3987,E,2.84,208.07,041125,,,A*65
$GPVTG,208.07,T,,M,2.84,N,5.26,K,A*3F
$GPGGA,091438.000,4728.4806,N,01903.3985,E,1,7,1.55,110.1,M,41.1,M,,*57
$GPGSA,A,3,05,09,21,30,07,11,20,,,,,,1.79,1.55,0.89*04
$GPGSV,4,1,14,07,76,070,33,30,70,220,32,21,64,280,31,20,58,274,28*70
$GPGSV,4,2,14,09,39,094,30,05,35,310,22,11,23,242,17,13,15,278,19*76
$GPGSV,4,3,14,14,14,172,23,16,06,030,,06,05,208,,04,02,096,*7C
$GPGSV,4,4,14,27,01,055,,46,,,*4A
$GPRMC,091438.000,A,4728.4806,N,01903.3985,E,2.18,196.47,041125,,,A*63
$GPVTG,196.47,T,,M,2.18,N,4.03,K,A*3C
$GPGGA,091439.000,4728.4803,N,01903.3986,E,1,7,1.55,110.1,M,41.1,M,,*50
$GPGSA,A,3,05,09,21,30,07,11,20,,,,,,1.79,1.55,0.89*04
$GPRMC,091439.000,A,4728.4803,N,01903.3986,E,2.18,180.78,041125,,,A*6F
$GPVTG,180.78,T,,M,2.18,N,4.04,K,A*30
$GPGGA,091440.000,4728.4797,N,01903.3990,E,1,7,1.55,110.0,M,41.1,M,,*5A
$GPGSA,A,3,05,09,21,30,07,11,20,,,,,,1.79,1.55,0.89*04
$GPRMC,091440.000,A,4728.4797,N,01903.3990,E,2.47,177.00,041125,,,A*69
$GPVTG,177.00,T,,M,2.47,N,4.57,K,A*3B
$GPGGA,091441.000,4728.4791,N,01903.3994,E,1,7,1.55,110.0,M,41.1,M,,*59
$GPGSA,A,3,05,09,21,30,07,11,20,,,,,,1.79,1.55,0.89*04
$GPRMC,091441.000,A,4728.4791,N,01903.3994,E,2.52,178.80,041125,,,A*69
$GPVTG,178.80,T,,M,2.52,N,4.67,K,A*3B
$GPGGA,091442.000,4728.4787,N,01903.3997,E,1,7,1.55,109.9,M,41.1,M,,*5F
$GPGSA,A,3,05,09,21,30,07,11,20,,,,,,1.79,1.55,0.89*04
$GPRMC,091442.000,A,4728.4787,N,01903.3997,E,2.24,157.17,041125,,,A*6C
$GPVTG,157.17,T,,M,2.24,N,4.15,K,A*3C
$GPGGA,091443.000,4728.4782,N,01903.4003,E,1,7,1.55,109.8,M,41.1,M,,*59
$GPGSA,A,3,05,09,21,30,07,11,20,,,,,,1.79,1.55,0.89*04
$GPGSV,4,1,14,07,76,070,32,30,70,220,34,21,64,280,34,20,58,274,37*7C
$GPGSV,4,2,14,09,39,094,29,05,35,310,20,11,23,242,17,13,15,278,20*76
$GPGSV,4,3,14,14,14,172,19,16,06,030,,06,05,208,,04,02,097,*74
$GPGSV,4,4,14,27,01,055,,46,,,*4A
$GPRMC,091443.000,A,4728.4782,N,01903.4003,E,2.23,154.49,041125,,,A*64
$GPVTG,154.49,T,,M,2.23,N,4.14,K,A*32
$GPGGA,091444.000,4728.4777,N,01903.4008,E,1,7,1.55,109.7,M,41.1,M,,*50
$GPGSA,A,3,05,09,21,30,07,11,20,,,,,,1.79,1.55,0.89*04
$GPRMC,091444.000,A,4728.4777,N,01903.4008,E,2.10,158.64,041125,,,A*61
$GPVTG,158.64,T,,M,2.10,N,3.89,K,A*32
$GPGGA,091445.000,4728.4771,N,01903.4014,E,1,7,1.55,109.5,M,41.1,M,,*58
$GPGSA,A,3,05,09,21,30,07,11,20,,,,,,1.79,1.55,0.89*04
$GPRMC,091445.000,A,4728.4771,N,01903.4014,E,2.26,159.26,041125,,,A*69
$GPVTG,159.26,T,,M,2.26,N,4.19,K,A*3E
$GPGGA,091446.000,4728.4766,N,01903.4021,E,1,7,1.55,109.4,M,41.1,M,,*5A
$GPGSA,A,3,05,09,21,30,07,11,20,,,,,,1.79,1.55,0.89*04
$GPRMC,091446.000,A,4728.4766,N,01903.4021,E,2.70,137.36,041125,,,A*60
$GPVTG,137.36,T,,M,2.70,N,5.01,K,A*3C
$GPGGA,091447.000,4728.4765,N,01903.4029,E,1,7,1.55,109.2,M,41.1,M,,*56
$GPGSA,A,3,05,09,21,30,07,11,20,,,,,,1.79,1.55,0.89*04
$GPRMC,091447.000,A,4728.4765,N,01903.4029,E,2.09,127.38,041125,,,A*6B
$GPVTG,127.38,T,,M,2.09,N,3.88,K,A*3A
$GPGGA,091448.000,4728.4761,N,01903.4036,E,1,7,1.55,109.0,M,41.1,M,,*51
$GPGSA,A,3,05,09,21,30,07,11,20,,,,,,1.79,1.55,0.89*04
$GPGSV,4,1,14,07,75,069,32,30,70,220,35,21,64,280,31,20,58,274,30*74
$GPGSV,4,2,14,09,38,094,29,05,35,310,28,11,23,242,15,13,15,278,19*77
$GPGSV,4,3,14,14,14,172,18,16,06,030,,06,05,208,,04,02,097,*75
$GPGSV,4,4,14,27,01,055,,47,,,*4B
$GPRMC,091448.000,A,4728.4761,N,01903.4036,E,2.28,133.32,041125,,,A*62
$GPVTG,133.32,T,,M,2.28,N,4.23,K,A*30
$GPGGA,091449.000,4728.4758,N,01903.4043,E,1,7,1.55,108.9,M,41.1,M,,*50
$GPGSA,A,3,05,09,21,30,07,11,20,,,,,,1.79,1.55,0.89*04
$GPRMC,091449.000,A,4728.4758,N,01903.4043,E,2.00,138.17,041125,,,A*6D
$GPVTG,138.17,T,,M,2.00,N,3.71,K,A*36
$GPGGA,091450.000,4728.4755,N,01903.4048,E,1,7,1.55,108.7,M,41.1,M,,*50
$GPGSA,A,3,05,09,21,30,07,11,20,,,,,,1.79,1.55,0.89*04
$GPRMC,091450.000,A,4728.4755,N,01903.4048,E,2.00,147.91,041125,,,A*65
$GPVTG,147.91,T,,M,2.00,N,3.70,K,A*31
$GPGGA,091451.000,4728.4752,N,01903.4055,E,1,7,1.55,108.6,M,41.1,M,,*5B
$GPGSA,A,3,05,09,21,30,07,11,20,,,,,,1.79,1.55,0.89*04
$GPRMC,091451.000,A,4728.4752,N,01903.4055,E,2.28,131.66,041125,,,A*6C
$GPVTG,131.66,T,,M,2.28,N,4.22,K,A*32
$GPGGA,091452.000,4728.4749,N,01903.4062,E,1,7,1.55,108.4,M,41.1,M,,*54
$GPGSA,A,3,05,09,21,30,07,11,20,,,,,,1.79,1.55,0.89*04
$GPRMC,091452.000,A,4728.4749,N,01903.4062,E,2.10,134.73,041125,,,A*6B
$GPVTG,134.73,T,,M,2.10,N,3.89,K,A*3E
$GPGGA,091453.000,4728.4745,N,01903.4068,E,1,7,1.55,108.2,M,41.1,M,,*55
$GPGSA,A,3,05,09,21,30,07,11,20,,,,,,1.79,1.55,0.89*04
$GPGSV,4,1,14,07,75,069,31,30,70,220,35,21,64,280,33,20,58,274,34*71
$GPGSV,4,2,14,09,38,094,28,05,35,310,28,11,23,242,16,13,15,278,15*79
$GPGSV,4,3,14,14,14,172,17,16,06,030,,06,05,208,,04,02,097,*7A
$GPGSV,4,4,14,27,01,055,,49,,,*45
$GPRMC,091453.000,A,4728.4745,N,01903.4068,E,2.08,140.26,041125,,,A*66
$GPVTG,140.26,T,,M,2.08,N,3.86,K,A*3B
$GPGGA,091454.000,4728.4739,N,01903.4073,E,1,7,1.55,108.0,M,41.1,M,,*51
$GPGSA,A,3,05,09,21,30,07,11,20,,,,,,1.79,1.55,0.89*04
$GPRMC,091454.000,A,4728.4739,N,01903.4073,E,2.45,158.79,041125,,,A*6A
$GPVTG,158.79,T,,M,2.45,N,4.54,K,A*39
$GPGGA,091455.000,4728.4731,N,01903.4078,E,1,7,1.55,107.9,M,41.1,M,,*55
$GPGSA,A,3,05,09,21,30,07,11,20,,,,,,1.79,1.55,0.89*04
$GPRMC,091455.000,A,4728.4731,N,01903.4078,E,2.86,153.21,041125,,,A*61
$GPVTG,153.21,T,,M,2.86,N,5.30,K,A*33
$GPGGA,091456.000,4728.4726,N,01903.4084,E,1,7,1.55,107.8,M,41.1,M,,*52
$GPGSA,A,3,05,09,21,30,07,11,20,,,,,,1.79,1.55,0.89*04
$GPRMC,091456.000,A,4728.4726,N,01903.4084,E,2.01,145.44,041125,,,A*6C
$GPVTG,145.44,T,,M,2.01,N,3.72,K,A*38
$GPGGA,091457.000,4728.4721,N,01903.4091,E,1,7,1.55,107.7,M,41.1,M,,*5F
$GPGSA,A,3,05,09,21,30,07,11,20,,,,,,1.79,1.55,0.89*04
$GPRMC,091457.000,A,4728.4721,N,01903.4091,E,2.01,144.06,041125,,,A*69
$GPVTG,144.06,T,,M,2.01,N,3.73,K,A*3E
$GPGGA,091458.000,4728.4715,N,01903.4096,E,1,7,1.55,107.5,M,41.1,M,,*52
$GPGSA,A,3,05,09,21,30,07,11,20,,,,,,1.79,1.55,0.89*04
$GPGSV,4,1,14,07,75,069,29,30,70,220,37,21,64,280,33,20,58,273,33*7A
$GPGSV,4,2,14,09,38,094,29,05,35,310,30,37,35,176,,11,23,242,16*7C
$GPGSV,4,3,14,13,15,278,13,14,14,172,19,16,06,029,,06,05,208,*7D
$GPGSV,4,4,14,04,02,097,,27,01,055,*70
$GPRMC,091458.000,A,4728.4715,N,01903.4096,E,2.46,154.45,041125,,,A*63
$GPVTG,154.45,T,,M,2.46,N,4.57,K,A*3A
$GPGGA,091459.000,4728.4708,N,01903.4102,E,1,7,1.55,107.4,M,41.1,M,,*52
$GPGSA,A,3,05,09,21,30,07,11,20,,,,,,1.79,1.55,0.89*04
$GPRMC,091459.000,A,4728.4708,N,01903.4102,E,2.65,149.75,041125,,,A*6C
$GPVTG,149.75,T,,M,2.65,N,4.91,K,A*3E
$GPGGA,091500.000,4728.4700,N,01903.4110,E,1,7,1.55,107.4,M,41.1,M,,*54
$GPGSA,A,3,05,09,21,30,07,11,20,,,,,,1.79,1.55,0.89*04
$GPRMC,091500.000,A,4728.4700,N,01903.4110,E,3.26,139.93,041125,,,A*63
$GPVTG,139.93,T,,M,3.26,N,6.04,K,A*39
$GPGGA,091501.000,4728.4694,N,01903.4118,E,1,7,1.55,107.3,M,41.1,M,,*56
$GPGSA,A,3,05,09,21,30,07,11,20,,,,,,1.79,1.55,0.89*04
$GPRMC,091501.000,A,4728.4694,N,01903.4118,E,3.09,133.82,041125,,,A*61
$GPVTG,133.82,T,,M,3.09,N,5.73,K,A*3D
$GPGGA,091502.000,4728.4687,N,01903.4128,E,1,7,1.55,107.2,M,41.1,M,,*55
$GPGSA,A,3,05,09,21,30,07,11,20,,,,,,1.79,1.55,0.89*04
$GPRMC,091502.000,A,4728.4687,N,01903.4128,E,2.73,135.57,041125,,,A*61
$GPVTG,135.57,T,,M,2.73,N,5.06,K,A*3D
$GPGGA,091503.000,4728.4682,N,01903.4135,E,1,7,1.55,107.1,M,41.1,M,,*5E
$GPGSA,A,3,05,09,21,30,07,11,20,,,,,,1.79,1.55,0.89*04
$GPGSV,4,1,14,07,75,069,29,30,70,220,36,21,64,280,32,20,58,273,33*7A
$GPGSV,4,2,14,09,38,094,27,05,35,310,30,37,35,176,,11,23,242,18*7C
$GPGSV,4,3,14,13,15,278,13,14,14,172,23,16,06,029,,06,05,208,*74
$GPGSV,4,4,14,04,02,097,,27,01,055,*70
$GPRMC,091503.000,A,4728.4682,N,01903.4135,E,2.31,138.01,041125,,,A*61
$GPVTG,138.01,T,,M,2.31,N,4.28,K,A*38
$GPGGA,091504.000,4728.4676,N,01903.4142,E,1,7,1.55,106.9,M,41.1,M,,*5B
$GPGSA,A,3,05,09,21,30,07,11,20,,,,,,1.79,1.55,0.89*04
$GPRMC,091504.000,A,4728.4676,N,01903.4142,E,2.88,138.64,041125,,,A*6C
$GPVTG,138.64,T,,M,2.88,N,5.34,K,A*35
$GPGGA,091505.000,4728.4672,N,01903.4148,E,1,7,1.55,106.7,M,41.1,M,,*5A
$GPGSA,A,3,05,09,21,30,07,11,20,,,,,,1.79,1.55,0.89*04
$GPRMC,091505.000,A,4728.4672,N,01903.4148,E,1.93,130.25,041125,,,A*67
$GPVTG,130.25,T,,M,1.93,N,3.57,K,A*32
$GPGGA,091506.000,4728.4664,N,01903.4156,E,1,7,1.55,106.3,M,41.1,M,,*55
$GPGSA,A,3,05,09,21,30,07,11,20,,,,,,1.79,1.55,0.89*04
$GPRMC,091506.000,A,4728.4664,N,01903.4156,E,2.71,131.96,041125,,,A*6A
$GPVTG,131.96,T,,M,2.71,N,5.02,K,A*32
$GPGGA,091507.000,4728.4655,N,01903.4162,E,1,7,1.55,105.9,M,41.1,M,,*58
$GPGSA,A,3,05,09,21,30,07,11,20,,,,,,1.79,1.55,0.89*04
$GPRMC,091507.000,A,4728.4655,N,01903.4162,E,2.78,151.17,041125,,,A*68
$GPVTG,151.17,T,,M,2.78,N,5.15,K,A*32
$GPGGA,091508.000,4728.4647,N,01903.4168,E,1,7,1.55,105.7,M,41.1,M,,*50
$GPGSA,A,3,05,09,21,30,07,11,20,,,,,,1.79,1.55,0.89*04
$GPGSV,4,1,14,07,75,069,27,30,71,220,36,21,64,280,31,20,58,273,34*71
$GPGSV,4,2,14,09,38,094,28,05,35,310,30,39,34,171,,11,23,242,30*71
$GPGSV,4,3,14,13,15,278,13,14,14,172,21,16,06,029,,06,05,208,*76
$GPGSV,4,4,14,04,02,097,,27,02,055,*73
$GPRMC,091508.000,A,4728.4647,N,01903.4168,E,2.63,141.61,041125,,,A*64
$GPVTG,141.61,T,,M,2.63,N,4.88,K,A*3D
$GPGGA,091509.000,4728.4639,N,01903.4171,E,1,7,1.55,105.5,M,41.1,M,,*52
$GPGSA,A,3,05,09,21,30,07,11,20,,,,,,1.79,1.55,0.89*04
$GPRMC,091509.000,A,4728.4639,N,01903.4171,E,2.13,143.84,041125,,,A*6A
$GPVTG,143.84,T,,M,2.13,N,3.94,K,A*39
$GPGGA,091510.000,4728.4631,N,01903.4176,E,1,7,1.55,105.3,M,41.1,M,,*53
$GPGSA,A,3,05,09,21,30,07,11,20,,,,,,1.79,1.55,0.89*04
$GPRMC,091510.000,A,4728.4631,N,01903.4176,E,2.26,146.30,041125,,,A*61
$GPVTG,146.30,T,,M,2.26,N,4.19,K,A*37
$GPGGA,091511.000,4728.4623,N,01903.4183,E,1,7,1.55,104.9,M,41.1,M,,*50
$GPGSA,A,3,05,09,21,30,07,11,20,,,,,,1.79,1.55,0.89*04
$GPRMC,091511.000,A,4728.4623,N,01903.4183,E,2.54,140.07,041125,,,A*6E
$GPVTG,140.07,T,,M,2.54,N,4.71,K,A*3E
$GPGGA,091512.000,4728.4617,N,01903.4191,E,1,7,1.55,104.7,M,41.1,M,,*59
$GPGSA,A,3,05,09,21,30,07,11,20,,,,,,1.79,1.55,0.89*04
$GPRMC,091512.000,A,4728.4617,N,01903.4191,E,2.31,145.83,041125,,,A*63
$GPVTG,145.83,T,,M,2.31,N,4.28,K,A*38
$GPGGA,091513.000,4728.4608,N,01903.4197,E,1,7,1.55,104.2,M,41.1,M,,*55
$GPGSA,A,3,05,09,21,30,07,11,20,,,,,,1.79,1.55,0.89*04
$GPGSV,4,1,14,07,75,069,29,30,71,220,36,21,64,280,31,20,58,273,34*7F
$GPGSV,4,2,14,09,38,094,28,05,35,310,31,39,34,171,,11,23,242,28*79
$GPGSV,4,3,14,13,15,278,14,14,14,172,22,16,06,029,,06,05,208,*72
$GPGSV,4,4,14,04,02,097,,27,02,055,*73
$GPRMC,091513.000,A,4728.4608,N,01903.4197,E,2.98,139.26,041125,,,A*6D
$GPVTG,139.26,T,,M,2.98,N,5.52,K,A*33
$GPGGA,091514.000,4728.4601,N,01903.4204,E,1,7,1.55,103.9,M,41.1,M,,*5E
$GPGSA,A,3,05,09,21,30,07,11,20,,,,,,1.79,1.55,0.89*04
$GPRMC,091514.000,A,4728.4601,N,01903.4204,E,2.94,132.20,041125,,,A*6B
$GPVTG,132.20,T,,M,2.94,N,5.45,K,A*34
$GPGGA,091515.000,4728.4594,N,01903.4212,E,1,7,1.55,103.7,M,41.1,M,,*59
$GPGSA,A,3,05,09,21,30,07,11,20,,,,,,1.79,1.55,0.89*04
$GPRMC,091515.000,A,4728.4594,N,01903.4212,E,2.77,140.56,041125,,,A*6B
$GPVTG,140.56,T,,M,2.77,N,5.13,K,A*3E
$GPGGA,091516.000,4728.4588,N,01903.4217,E,1,7,1.55,103.5,M,41.1,M,,*50
$GPGSA,A,3,05,09,21,30,07,11,20,,,,,,1.79,1.55,0.89*04
$GPRMC,091516.000,A,4728.4588,N,01903.4217,E,2.55,144.59,041125,,,A*6B
$GPVTG,144.59,T,,M,2.55,N,4.72,K,A*33
$GPGGA,091517.000,4728.4581,N,01903.4223,E,1,7,1.55,103.3,M,41.1,M,,*59
$GPGSA,A,3,05,09,21,30,07,11,20,,,,,,1.79,1.55,0.89*04
$GPRMC,091517.000,A,4728.4581,N,01903.4223,E,2.36,162.62,041125,,,A*6D
$GPVTG,162.62,T,,M,2.36,N,4.37,K,A*3B
$GPGGA,091518.000,4728.4576,N,01903.4226,E,1,7,1.55,103.1,M,41.1,M,,*59
$GPGSA,A,3,05,09,21,30,07,11,20,,,,,,1.79,1.55,0.89*04
$GPGSV,4,1,14,07,75,069,31,30,71,220,36,21,64,280,32,20,58,273,34*75
$GPGSV,4,2,14,09,38,094,27,05,35,309,31,33,25,222,,11,23,242,17*7D
$GPGSV,4,3,14,13,15,278,,14,14,172,17,16,06,029,,06,05,208,*71
$GPGSV,4,4,14,04,02,097,,27,02,055,*73
$GPRMC,091518.000,A,4728.4576,N,01903.4226,E,2.22,157.11,041125,,,A*68
$GPVTG,157.11,T,,M,2.22,N,4.11,K,A*38
$GPGGA,091519.000,4728.4570,N,01903.4232,E,1,7,1.55,102.9,M,41.1,M,,*52
$GPGSA,A,3,05,09,21,30,07,11,20,,,,,,1.79,1.55,0.89*04
$GPRMC,091519.000,A,4728.4570,N,01903.4232,E,2.25,145.70,041125,,,A*69
$GPVTG,145.70,T,,M,2.25,N,4.17,K,A*3D
$GPGGA,091520.000,4728.4566,N,01903.4239,E,1,7,1.55,102.6,M,41.1,M,,*5B
$GPGSA,A,3,05,09,21,30,07,11,20,,,,,,1.79,1.55,0.89*04
$GPRMC,091520.000,A,4728.4566,N,01903.4239,E,2.05,137.60,041125,,,A*69
$GPVTG,137.60,T,,M,2.05,N,3.80,K,A*32
$GPGGA,091521.000,4728.4559,N,01903.4244,E,1,7,1.55,102.5,M,41.1,M,,*5F
$GPGSA,A,3,05,09,21,30,07,11,20,,,,,,1.79,1.55,0.89*04
$GPRMC,091521.000,A,4728.4559,N,01903.4244,E,2.85,152.04,041125,,,A*67
$GPVTG,152.04,T,,M,2.85,N,5.28,K,A*3F
$GPGGA,091522.000,4728.4553,N,01903.4249,E,1,7,1.55,102.2,M,41.1,M,,*5C
$GPGSA,A,3,05,09,21,30,07,11,20,,,,,,1.79,1.55,0.89*04
$GPRMC,091522.000,A,4728.4553,N,01903.4249,E,2.47,157.97,041125,,,A*62
$GPVTG,157.97,T,,M,2.47,N,4.58,K,A*38
$GPGGA,091523.000,4728.4547,N,01903.4254,E,1,7,1.55,102.0,M,41.1,M,,*56
$GPGSA,A,3,05,09,21,30,07,11,20,,,,,,1.79,1.55,0.89*04
$GPGSV,4,1,14,07,75,069,29,30,71,220,35,21,64,280,32,20,58,273,34*7F
$GPGSV,4,2,14,09,38,094,27,05,35,309,32,33,25,222,,11,23,242,13*7A
$GPGSV,4,3,14,13,15,278,,14,14,172,17,16,06,029,,06,05,208,*71
$GPGSV,4,4,14,04,02,097,,27,02,055,*73
$GPRMC,091523.000,A,4728.4547,N,01903.4254,E,2.48,154.23,041125,,,A*69
$GPVTG,154.23,T,,M,2.48,N,4.59,K,A*3A
$GPGGA,091524.000,4728.4542,N,01903.4260,E,1,7,1.55,101.8,M,41.1,M,,*58
$GPGSA,A,3,05,09,21,30,07,11,20,,,,,,1.79,1.55,0.89*04
$GPRMC,091524.000,A,4728.4542,N,01903.4260,E,2.77,147.53,041125,,,A*65
$GPVTG,147.53,T,,M,2.77,N,5.13,K,A*3C
$GPGGA,091525.000,4728.4536,N,01903.4267,E,1,7,1.56,101.5,M,41.1,M,,*53
$GPGSA,A,3,05,09,21,30,07,11,20,,,,,,1.79,1.56,0.89*07
$GPRMC,091525.000,A,4728.4536,N,01903.4267,E,2.83,144.71,041125,,,A*68
$GPVTG,144.71,T,,M,2.83,N,5.24,K,A*30
$GPGGA,091526.000,4728.4531,N,01903.4273,E,1,7,1.55,101.2,M,41.1,M,,*56
$GPGSA,A,3,05,09,21,30,07,11,20,,,,,,1.79,1.55,0.89*04
$GPRMC,091526.000,A,4728.4531,N,01903.4273,E,2.50,140.92,041125,,,A*6E
$GPVTG,140.92,T,,M,2.50,N,4.64,K,A*32
$GPGGA,091527.000,4728.4526,N,01903.4282,E,1,7,1.55,100.9,M,41.1,M,,*55
$GPGSA,A,3,05,09,21,30,07,11,20,,,,,,1.79,1.55,0.89*04
$GPRMC,091527.000,A,4728.4526,N,01903.4282,E,2.86,126.79,041125,,,A*69
$GPVTG,126.79,T,,M,2.86,N,5.30,K,A*3C
$GPGGA,091528.000,4728.4521,N,01903.4291,E,1,6,1.90,100.6,M,41.1,M,,*58
$GPGSA,A,3,05,21,30,07,11,20,,,,,,,2.12,1.90,0.95*07
$GPGSV,4,1,14,07,75,069,28,30,71,220,35,21,64,280,32,20,58,273,34*7E
$GPGSV,4,2,14,09,38,094,17,05,35,309,30,11,22,242,15,40,20,126,*7A
$GPGSV,4,3,14,13,15,278,,14,14,172,19,16,06,029,,06,05,208,*7F
$GPGSV,4,4,14,04,02,097,,27,02,055,*73
$GPRMC,091528.000,A,4728.4521,N,01903.4291,E,2.56,133.17,041125,,,A*62
$GPVTG,133.17,T,,M,2.56,N,4.75,K,A*3D
$GPGGA,091529.000,4728.4516,N,01903.4301,E,1,7,1.55,100.3,M,41.1,M,,*58
$GPGSA,A,3,05,09,21,30,07,11,20,,,,,,1.79,1.55,0.89*04
$GPRMC,091529.000,A,4728.4516,N,01903.4301,E,3.40,122.85,041125,,,A*62
$GPVTG,122.85,T,,M,3.40,N,6.30,K,A*33
$GPGGA,091530.000,4728.4510,N,01903.4311,E,1,7,1.55,100.0,M,41.1,M,,*54
$GPGSA,A,3,05,09,21,30,07,11,20,,,,,,1.79,1.55,0.89*04
$GPRMC,091530.000,A,4728.4510,N,01903.4311,E,3.76,120.91,041125,,,A*6F
$GPVTG,120.91,T,,M,3.76,N,6.97,K,A*3C
$GPGGA,091531.000,4728.4503,N,01903.4317,E,1,6,1.90,99.7,M,41.1,M,,*6F
$GPGSA,A,3,05,21,30,07,11,20,,,,,,,2.12,1.90,0.95*07
$GPRMC,091531.000,A,4728.4503,N,01903.4317,E,2.81,129.86,041125,,,A*6C
$GPVTG,129.86,T,,M,2.81,N,5.20,K,A*35
$GPGGA,091532.000,4728.4496,N,01903.4323,E,1,7,1.56,99.4,M,41.1,M,,*6E
$GPGSA,A,3,05,09,21,30,07,11,20,,,,,,1.79,1.56,0.89*07
$GPRMC,091532.000,A,4728.4496,N,01903.4323,E,2.58,136.37,041125,,,A*65
$GPVTG,136.37,T,,M,2.58,N,4.78,K,A*39
$GPGGA,091533.000,4728.4491,N,01903.4333,E,1,7,1.55,99.3,M,41.1,M,,*6D
$GPGSA,A,3,05,09,21,30,07,11,20,,,,,,1.79,1.55,0.89*04
$GPGSV,4,1,14,07,75,069,19,30,71,220,36,21,64,280,33,20,58,273,36*7C
$GPGSV,4,2,14,09,38,094,16,05,35,309,31,11,22,242,30,40,20,126,*7D
$GPGSV,4,3,14,13,15,278,,14,14,172,17,16,06,029,,06,05,208,18*78
$GPGSV,4,4,14,04,02,097,,27,02,055,*73
$GPRMC,091533.000,A,4728.4491,N,01903.4333,E,2.81,138.34,041125,,,A*6B
$GPVTG,138.34,T,,M,2.81,N,5.21,K,A*3D
$GPGGA,091534.000,4728.4483,N,01903.4340,E,1,7,1.55,99.0,M,41.1,M,,*6E
$GPGSA,A,3,05,09,21,30,07,11,20,,,,,,1.79,1.55,0.89*04
$GPRMC,091534.000,A,4728.4483,N,01903.4340,E,3.10,141.47,041125,,,A*68
$GPVTG,141.47,T,,M,3.10,N,5.75,K,A*3F
$GPGGA,091535.000,4728.4476,N,01903.4347,E,1,7,1.55,98.7,M,41.1,M,,*64
$GPGSA,A,3,05,09,21,30,07,11,20,,,,,,1.79,1.55,0.89*04
$GPRMC,091535.000,A,4728.4476,N,01903.4347,E,2.65,140.75,041125,,,A*67
$GPVTG,140.75,T,,M,2.65,N,4.91,K,A*37
$GPGGA,091536.000,4728.4469,N,01903.4355,E,1,7,1.55,98.4,M,41.1,M,,*69
$GPGSA,A,3,05,09,21,30,07,11,20,,,,,,1.79,1.55,0.89*04
$GPRMC,091536.000,A,4728.4469,N,01903.4355,E,2.86,132.79,041125,,,A*6D
$GPVTG,132.79,T,,M,2.86,N,5.30,K,A*39
$GPGGA,091537.000,4728.4460,N,01903.4358,E,1,7,1.55,98.0,M,41.1,M,,*68
$GPGSA,A,3,05,09,21,30,07,11,20,,,,,,1.79,1.55,0.89*04
$GPRMC,091537.000,A,4728.4460,N,01903.4358,E,3.06,142.16,041125,,,A*6F
$GPVTG,142.16,T,,M,3.06,N,5.67,K,A*3C
$GPGGA,091538.000,4728.4451,N,01903.4364,E,1,7,1.55,97.7,M,41.1,M,,*62
$GPGSA,A,3,05,09,21,30,07,11,20,,,,,,1.79,1.55,0.89*04
$GPGSV,4,1,14,07,75,069,19,30,71,220,35,21,64,279,33,20,58,273,35*7A
$GPGSV,4,2,14,09,38,094,16,05,35,309,32,11,22,242,28,44,19,124,*7B
$GPGSV,4,3,14,13,15,278,,14,14,172,17,16,06,029,,06,05,208,16*76
$GPGSV,4,4,14,04,02,097,,27,02,055,*73
$GPRMC,091538.000,A,4728.4451,N,01903.4364,E,2.75,143.34,041125,,,A*69
$GPVTG,143.34,T,,M,2.75,N,5.09,K,A*30
$GPGGA,091539.000,4728.4444,N,01903.4368,E,1,7,1.55,97.4,M,41.1,M,,*68
$GPGSA,A,3,05,09,21,30,07,11,20,,,,,,1.79,1.55,0.89*04
$GPRMC,091539.000,A,4728.4444,N,01903.4368,E,2.54,137.02,041125,,,A*65
$GPVTG,137.02,T,,M,2.54,N,4.71,K,A*3B
$GPGGA,091540.000,4728.4439,N,01903.4380,E,1,7,1.55,97.0,M,41.1,M,,*6E
$GPGSA,A,3,05,09,21,30,07,11,20,,,,,,1.79,1.55,0.89*04
$GPRMC,091540.000,A,4728.4439,N,01903.4380,E,2.93,132.09,041125,,,A*62
$GPVTG,132.09,T,,M,2.93,N,5.42,K,A*3F
$GPGGA,091541.000,4728.4433,N,01903.4391,E,1,7,1.55,96.6,M,41.1,M,,*62
$GPGSA,A,3,05,09,21,30,07,11,20,,,,,,1.79,1.55,0.89*04
$GPRMC,091541.000,A,4728.4433,N,01903.4391,E,2.17,135.56,041125,,,A*68
$GPVTG,135.56,T,,M,2.17,N,4.02,K,A*3B
$GPGGA,091542.000,4728.4426,N,01903.4394,E,1,7,1.55,96.4,M,41.1,M,,*62
$GPGSA,A,3,05,09,21,30,07,11,20,,,,,,1.79,1.55,0.89*04
$GPRMC,091542.000,A,4728.4426,N,01903.4394,E,2.36,143.46,041125,,,A*69
$GPVTG,143.46,T,,M,2.36,N,4.38,K,A*31
$GPGGA,091543.000,4728.4420,N,01903.4400,E,1,7,1.55,96.1,M,41.1,M,,*6A
$GPGSA,A,3,05,09,21,30,07,11,20,,,,,,1.79,1.55,0.89*04
$GPGSV,4,1,14,07,75,069,19,30,71,220,33,21,64,279,33,20,58,273,35*7C
$GPGSV,4,2,14,09,38,094,16,05,35,309,33,11,22,242,24,44,19,124,*76
$GPGSV,4,3,14,13,15,278,,14,14,172,16,16,06,029,,06,05,208,17*76
$GPGSV,4,4,14,04,02,097,,27,02,054,*72
$GPRMC,091543.000,A,4728.4420,N,01903.4400,E,3.01,126.58,041125,,,A*6D
$GPVTG,126.58,T,,M,3.01,N,5.58,K,A*3F
$GPGGA,091544.000,4728.4413,N,01903.4404,E,1,7,1.55,95.8,M,41.1,M,,*63
$GPGSA,A,3,05,09,21,30,07,11,20,,,,,,1.79,1.55,0.89*04
$GPRMC,091544.000,A,4728.4413,N,01903.4404,E,3.08,133.10,041125,,,A*6F
$GPVTG,133.10,T,,M,3.08,N,5.71,K,A*35
$GPGGA,091545.000,4728.4406,N,01903.4411,E,1,7,1.55,95.6,M,41.1,M,,*6C
$GPGSA,A,3,05,09,21,30,07,11,20,,,,,,1.79,1.55,0.89*04
$GPRMC,091545.000,A,4728.4406,N,01903.4411,E,2.70,140.11,041125,,,A*65
$GPVTG,140.11,T,,M,2.70,N,5.01,K,A*39
$GPGGA,091546.000,4728.4401,N,01903.4417,E,1,7,1.55,95.3,M,41.1,M,,*6B
$GPGSA,A,3,05,09,21,30,07,11,20,,,,,,1.79,1.55,0.89*04
$GPRMC,091546.000,A,4728.4401,N,01903.4417,E,2.12,136.45,041125,,,A*63
$GPVTG,136.45,T,,M,2.12,N,3.93,K,A*30
$GPGGA,091547.000,4728.4397,N,01903.4423,E,1,7,1.55,95.1,M,41.1,M,,*67
$GPGSA,A,3,05,09,21,30,07,11,20,,,,,,1.79,1.55,0.89*04
$GPRMC,091547.000,A,4728.4397,N,01903.4423,E,2.48,132.40,041125,,,A*63
$GPVTG,132.40,T,,M,2.48,N,4.59,K,A*3F
$GPGGA,091548.000,4728.4392,N,01903.4423,E,1,7,1.55,94.9,M,41.1,M,,*64
$GPGSA,A,3,05,09,21,30,07,11,20,,,,,,1.79,1.55,0.89*04
$GPGSV,4,1,14,07,75,069,19,30,71,220,29,21,64,279,31,20,58,273,26*77
$GPGSV,4,2,14,09,38,094,18,05,35,309,32,11,22,242,22,13,15,278,*7B
$GPGSV,4,3,14,14,14,172,16,16,06,029,,06,05,208,18,04,02,097,*7A
$GPGSV,4,4,14,27,02,054,,34,,,*4D
$GPRMC,091548.000,A,4728.4392,N,01903.4423,E,1.77,138.83,041125,,,A*63
$GPVTG,138.83,T,,M,1.77,N,3.28,K,A*34
$GPGGA,091549.000,4728.4387,N,01903.4423,E,1,7,1.56,94.7,M,41.1,M,,*6C
$GPGSA,A,3,05,09,21,30,07,11,20,,,,,,1.79,1.56,0.89*07
$GPRMC,091549.000,A,4728.4387,N,01903.4423,E,1.71,150.28,041125,,,A*6F
$GPVTG,150.28,T,,M,1.71,N,3.17,K,A*31
$GPGGA,091550.000,4728.4382,N,01903.4422,E,1,7,1.56,94.4,M,41.1,M,,*63
$GPGSA,A,3,05,09,21,30,07,11,20,,,,,,1.79,1.56,0.89*07
$GPRMC,091550.000,A,4728.4382,N,01903.4422,E,1.85,149.91,041125,,,A*62
$GPVTG,149.91,T,,M,1.85,N,3.43,K,A*31
$GPGGA,091551.000,4728.4377,N,01903.4425,E,1,7,1.55,94.2,M,41.1,M,,*6A
$GPGSA,A,3,05,09,21,30,07,11,20,,,,,,1.79,1.55,0.89*04
$GPRMC,091551.000,A,4728.4377,N,01903.4425,E,2.00,158.71,041125,,,A*6E
$GPVTG,158.71,T,,M,2.00,N,3.71,K,A*30
$GPGGA,091552.000,4728.4372,N,01903.4429,E,1,7,1.55,93.9,M,41.1,M,,*6C
$GPGSA,A,3,05,09,21,30,07,11,20,,,,,,1.79,1.55,0.89*04
$GPRMC,091552.000,A,4728.4372,N,01903.4429,E,1.90,159.45,041125,,,A*68
$GPVTG,159.45,T,,M,1.90,N,3.51,K,A*3E
$GPGGA,091553.000,4728.4368,N,01903.4433,E,1,7,1.55,93.7,M,41.1,M,,*63
$GPGSA,A,3,05,09,21,30,07,11,20,,,,,,1.79,1.55,0.89*04
$GPGSV,4,1,14,07,75,069,18,30,71,220,28,21,64,279,24,20,58,273,24*71
$GPGSV,4,2,14,09,38,094,20,05,35,309,27,11,22,242,27,13,15,278,*71
$GPGSV,4,3,14,14,14,172,19,16,06,029,,06,05,208,18,04,02,097,*75
$GPGSV,4,4,14,27,02,054,,35,,,*4C
$GPRMC,091553.000,A,4728.4368,N,01903.4433,E,2.09,144.66,041125,,,A*67
$GPVTG,144.66,T,,M,2.09,N,3.88,K,A*34
$GPGGA,091554.000,4728.4366,N,01903.4442,E,1,7,1.55,93.6,M,41.1,M,,*6D
$GPGSA,A,3,05,09,21,30,07,11,20,,,,,,1.79,1.55,0.89*04
$GPRMC,091554.000,A,4728.4366,N,01903.4442,E,2.36,118.70,041125,,,A*6A
$GPVTG,118.70,T,,M,2.36,N,4.37,K,A*35
$GPGGA,091555.000,4728.4362,N,01903.4450,E,1,7,1.55,93.4,M,41.1,M,,*69
$GPGSA,A,3,05,09,21,30,07,11,20,,,,,,1.79,1.55,0.89*04
$GPRMC,091555.000,A,4728.4362,N,01903.4450,E,2.40,125.34,041125,,,A*63
$GPVTG,125.34,T,,M,2.40,N,4.44,K,A*3E
$GPGGA,091556.000,4728.4360,N,01903.4455,E,1,7,1.55,93.2,M,41.1,M,,*6B
$GPGSA,A,3,05,09,21,30,07,11,20,,,,,,1.79,1.55,0.89*04
$GPRMC,091556.000,A,4728.4360,N,01903.4455,E,1.86,134.79,041125,,,A*67
$GPVTG,134.79,T,,M,1.86,N,3.45,K,A*38
$GPGGA,091557.000,4728.4361,N,01903.4463,E,1,7,1.55,93.0,M,41.1,M,,*6C
$GPGSA,A,3,05,09,21,30,07,11,20,,,,,,1.79,1.55,0.89*04
$GPRMC,091557.000,A,4728.4361,N,01903.4463,E,1.76,109.75,041125,,,A*6F
$GPVTG,109.75,T,,M,1.76,N,3.26,K,A*30
$GPGGA,091558.000,4728.4363,N,01903.4474,E,1,7,1.55,92.8,M,41.1,M,,*6E
$GPGSA,A,3,05,09,21,30,07,11,20,,,,,,1.79,1.55,0.89*04
$GPGSV,4,1,14,07,75,068,31,30,71,220,23,21,64,279,17,20,58,273,17*70
$GPGSV,4,2,14,09,38,094,21,05,35,309,18,11,22,242,25,13,15,278,17*78
$GPGSV,4,3,14,14,14,172,22,16,06,029,,06,04,208,16,04,02,097,*72
$GPGSV,4,4,14,27,02,054,,36,,,*4F
$GPRMC,091558.000,A,4728.4363,N,01903.4474,E,1.73,95.26,041125,,,A*53
$GPVTG,95.26,T,,M,1.73,N,3.20,K,A*01
$GPGGA,091559.000,4728.4365,N,01903.4482,E,1,7,1.55,92.6,M,41.1,M,,*6E
$GPGSA,A,3,05,09,21,30,07,11,20,,,,,,1.79,1.55,0.89*04
$GPRMC,091559.000,A,4728.4365,N,01903.4482,E,1.51,86.41,041125,,,A*5E
$GPVTG,86.41,T,,M,1.51,N,2.80,K,A*09
$GPGGA,091600.000,4728.4372,N,01903.4489,E,1,7,1.55,92.5,M,41.1,M,,*6F
$GPGSA,A,3,05,09,21,30,07,11,20,,,,,,1.79,1.55,0.89*04
$GPRMC,091600.000,A,4728.4372,N,01903.4489,E,2.27,58.57,041125,,,A*5A
$GPVTG,58.57,T,,M,2.27,N,4.21,K,A*02
$GPGGA,091601.000,4728.4375,N,01903.4495,E,1,7,1.55,92.2,M,41.1,M,,*63
$GPGSA,A,3,05,09,21,30,07,11,20,,,,,,1.79,1.55,0.89*04
$GPRMC,091601.000,A,4728.4375,N,01903.4495,E,1.68,55.80,041125,,,A*5E
$GPVTG,55.80,T,,M,1.68,N,3.11,K,A*09
$GPGGA,091602.000,4728.4382,N,01903.4501,E,1,7,1.55,92.0,M,41.1,M,,*66
$GPGSA,A,3,05,09,21,30,07,11,20,,,,,,1.79,1.55,0.89*04
$GPRMC,091602.000,A,4728.4382,N,01903.4501,E,2.10,44.71,041125,,,A*5B
$GPVTG,44.71,T,,M,2.10,N,3.90,K,A*02
$GPGGA,091603.000,4728.4386,N,01903.4508,E,1,7,1.55,91.8,M,41.1,M,,*61
$GPGSA,A,3,05,09,21,30,07,11,20,,,,,,1.79,1.55,0.89*04
$GPGSV,4,1,14,07,75,068,29,30,71,220,30,21,64,279,26,20,58,273,21*7C
$GPGSV,4,2,14,09,38,094,19,05,35,309,18,11,22,242,20,13,15,278,15*74
$GPGSV,4,3,14,14,14,172,23,16,06,029,,06,04,208,16,04,02,097,*73
$GPGSV,4,4,14,27,02,054,,36,,,*4F
$GPRMC,091603.000,A,4728.4386,N,01903.4508,E,2.06,41.43,041125,,,A*54
$GPVTG,41.43,T,,M,2.06,N,3.81,K,A*01
$GPGGA,091604.000,4728.4381,N,01903.4520,E,1,7,1.55,91.5,M,41.1,M,,*66
$GPGSA,A,3,05,09,21,30,07,11,20,,,,,,1.79,1.55,0.89*04
$GPRMC,091604.000,A,4728.4381,N,01903.4520,E,1.65,69.58,041125,,,A*58
$GPVTG,69.58,T,,M,1.65,N,3.05,K,A*0B
$GPGGA,091605.000,4728.4378,N,01903.4529,E,1,7,1.55,91.2,M,41.1,M,,*6F
$GPGSA,A,3,05,09,21,30,07,11,20,,,,,,1.79,1.55,0.89*04
$GPRMC,091605.000,A,4728.4378,N,01903.4529,E,1.70,83.66,041125,,,A*5B
$GPVTG,83.66,T,,M,1.70,N,3.15,K,A*07
$GPGGA,091606.000,4728.4372,N,01903.4540,E,1,7,1.56,91.0,M,41.1,M,,*68
$GPGSA,A,3,05,09,21,30,07,11,20,,,,,,1.79,1.56,0.89*07
$GPRMC,091606.000,A,4728.4372,N,01903.4540,E,2.26,109.24,041125,,,A*68
$GPVTG,109.24,T,,M,2.26,N,4.18,K,A*38
$GPGGA,091607.000,4728.4372,N,01903.4547,E,1,7,1.56,90.7,M,41.1,M,,*68
$GPGSA,A,3,05,09,21,30,07,11,20,,,,,,1.79,1.56,0.89*07
$GPRMC,091607.000,A,4728.4372,N,01903.4547,E,2.03,105.00,041125,,,A*63
$GPVTG,105.00,T,,M,2.03,N,3.76,K,A*3A
$GPGGA,091608.000,4728.4372,N,01903.4553,E,1,7,1.56,90.4,M,41.1,M,,*61
$GPGSA,A,3,05,09,21,30,07,11,20,,,,,,1.79,1.56,0.89*07
$GPGSV,4,1,14,07,75,068,27,30,71,220,28,21,64,279,26,20,58,273,27*7D
$GPGSV,4,2,14,09,38,094,21,05,35,309,18,11,22,242,20,13,15,278,16*7C
$GPGSV,4,3,14,14,14,172,24,16,06,029,,06,04,208,16,04,02,097,*74
$GPGSV,4,4,14,27,02,054,,38,,,*41
$GPRMC,091608.000,A,4728.4372,N,01903.4553,E,1.66,100.80,041125,,,A*64
$GPVTG,100.80,T,,M,1.66,N,3.07,K,A*31
$GPGGA,091609.000,4728.4369,N,01903.4557,E,1,7,1.56,90.2,M,41.1,M,,*68
$GPGSA,A,3,05,09,21,30,07,11,20,,,,,,1.79,1.56,0.89*07
$GPRMC,091609.000,A,4728.4369,N,01903.4557,E,1.49,120.04,041125,,,A*68
$GPVTG,120.04,T,,M,1.49,N,2.76,K,A*35
$GPGGA,091610.000,4728.4372,N,01903.4557,E,1,7,1.55,90.1,M,41.1,M,,*6A
$GPGSA,A,3,05,09,21,30,07,11,20,,,,,,1.79,1.55,0.89*04
$GPRMC,091610.000,A,4728.4372,N,01903.4557,E,1.18,70.34,041125,,,A*59
$GPVTG,70.34,T,,M,1.18,N,2.18,K,A*0E
$GPGGA,091611.000,4728.4377,N,01903.4562,E,1,7,1.56,89.9,M,41.1,M,,*6B
$GPGSA,A,3,05,09,21,30,07,11,20,,,,,,1.79,1.56,0.89*07
$GPRMC,091611.000,A,4728.4377,N,01903.4562,E,2.64,47.36,041125,,,A*55
$GPVTG,47.36,T,,M,2.64,N,4.90,K,A*06
$GPGGA,091612.000,4728.4367,N,01903.4568,E,1,7,1.56,89.8,M,41.1,M,,*62
$GPGSA,A,3,05,09,21,30,07,11,20,,,,,,1.79,1.56,0.89*07
$GPRMC,091612.000,A,4728.4367,N,01903.4568,E,2.46,91.81,041125,,,A*5A
$GPVTG,91.81,T,,M,2.46,N,4.55,K,A*08
$GPGGA,091613.000,4728.4365,N,01903.4579,E,1,7,1.56,89.7,M,41.1,M,,*6E
$GPGSA,A,3,05,09,21,30,07,11,20,,,,,,1.79,1.56,0.89*07
$GPGSV,4,1,14,07,75,068,31,30,71,220,34,21,64,279,29,20,58,272,27*79
$GPGSV,4,2,14,09,38,094,23,05,35,309,19,11,22,242,18,13,15,278,19*7B
$GPGSV,4,3,14,14,14,172,27,16,06,029,,06,04,208,15,04,02,097,*74
$GPGSV,4,4,14,27,02,054,,41,,,*4F
$GPRMC,091613.000,A,4728.4365,N,01903.4579,E,2.30,86.71,041125,,,A*51
$GPVTG,86.71,T,,M,2.30,N,4.26,K,A*04
$GPGGA,091614.000,4728.4368,N,01903.4585,E,1,7,1.56,89.5,M,41.1,M,,*65
$GPGSA,A,3,05,09,21,30,07,11,20,,,,,,1.79,1.56,0.89*07
$GPRMC,091614.000,A,4728.4368,N,01903.4585,E,2.12,85.98,041125,,,A*5C
$GPVTG,85.98,T,,M,2.12,N,3.93,K,A*09
$GPGGA,091615.000,4728.4365,N,01903.4596,E,1,7,1.56,89.3,M,41.1,M,,*6D
$GPGSA,A,3,05,09,21,30,07,11,20,,,,,,1.79,1.56,0.89*07
$GPRMC,091615.000,A,4728.4365,N,01903.4596,E,2.01,91.87,041125,,,A*5B
$GPVTG,91.87,T,,M,2.01,N,3.73,K,A*0E
$GPGGA,091616.000,4728.4365,N,01903.4603,E,1,7,1.56,89.1,M,41.1,M,,*63
$GPGSA,A,3,05,09,21,30,07,11,20,,,,,,1.79,1.56,0.89*07
$GPRMC,091616.000,A,4728.4365,N,01903.4603,E,1.58,92.02,041125,,,A*56
$GPVTG,92.02,T,,M,1.58,N,2.93,K,A*00
$GPGGA,091617.000,4728.4366,N,01903.4610,E,1,7,1.56,88.9,M,41.1,M,,*6A
$GPGSA,A,3,05,09,21,30,07,11,20,,,,,,1.79,1.56,0.89*07
$GPRMC,091617.000,A,4728.4366,N,01903.4610,E,1.64,75.73,041125,,,A*56
$GPVTG,75.73,T,,M,1.64,N,3.04,K,A*0F
$GPGGA,091618.000,4728.4363,N,01903.4617,E,1,7,1.56,88.8,M,41.1,M,,*66
$GPGSA,A,3,05,09,21,30,07,11,20,,,,,,1.79,1.56,0.89*07
$GPGSV,4,1,14,07,75,068,28,30,71,220,31,21,64,279,29,20,58,272,28*7B
$GPGSV,4,2,14,09,38,094,24,05,35,309,23,11,22,242,19,13,15,278,19*74
$GPGSV,4,3,14,14,14,172,20,16,06,029,,06,04,208,14,04,02,097,*72
$GPGSV,4,4,14,27,02,054,,43,,,*4D
$GPRMC,091618.000,A,4728.4363,N,01903.4617,E,1.42,78.26,041125,,,A*52
$GPVTG,78.26,T,,M,1.42,N,2.63,K,A*06
$GPGGA,091619.000,4728.4365,N,01903.4625,E,1,7,1.56,88.5,M,41.1,M,,*6D
$GPGSA,A,3,05,09,21,30,07,11,20,,,,,,1.79,1.56,0.89*07
$GPRMC,091619.000,A,4728.4365,N,01903.4625,E,1.76,75.45,041125,,,A*5B
$GPVTG,75.45,T,,M,1.76,N,3.25,K,A*0A
$GPGGA,091620.000,4728.4364,N,01903.4634,E,1,7,1.56,88.3,M,41.1,M,,*60
$GPGSA,A,3,05,09,21,30,07,11,20,,,,,,1.79,1.56,0.89*07
$GPRMC,091620.000,A,4728.4364,N,01903.4634,E,1.62,96.76,041125,,,A*58
$GPVTG,96.76,T,,M,1.62,N,3.00,K,A*05
$GPGGA,091621.000,4728.4365,N,01903.4641,E,1,7,1.56,88.1,M,41.1,M,,*60
$GPGSA,A,3,05,09,21,30,07,11,20,,,,,,1.79,1.56,0.89*07
$GPRMC,091621.000,A,4728.4365,N,01903.4641,E,1.38,102.15,041125,,,A*6C
$GPVTG,102.15,T,,M,1.38,N,2.56,K,A*31
$GPGGA,091622.000,4728.4366,N,01903.4652,E,1,7,1.56,88.0,M,41.1,M,,*63
$GPGSA,A,3,05,09,21,30,07,11,20,,,,,,1.79,1.56,0.89*07
$GPRMC,091622.000,A,4728.4366,N,01903.4652,E,1.77,86.18,041125,,,A*55
$GPVTG,86.18,T,,M,1.77,N,3.29,K,A*03
$GPGGA,091623.000,4728.4369,N,01903.4662,E,1,7,1.56,87.8,M,41.1,M,,*69
$GPGSA,A,3,05,09,21,30,07,11,20,,,,,,1.79,1.56,0.89*07
$GPGSV,4,1,14,07,75,068,29,30,71,220,29,21,64,279,29,20,58,272,28*73
$GPGSV,4,2,14,09,38,094,24,05,35,309,21,11,22,242,19,13,15,278,20*7C
$GPGSV,4,3,14,14,14,172,,16,06,029,,06,04,208,13,04,02,097,*77
$GPGSV,4,4,14,27,02,054,,45,,,*4B
$GPRMC,091623.000,A,4728.4369,N,01903.4662,E,1.94,74.47,041125,,,A*52
$GPVTG,74.47,T,,M,1.94,N,3.60,K,A*04
$GPGGA,091624.000,4728.4373,N,01903.4670,E,1,7,1.56,87.6,M,41.1,M,,*68
$GPGSA,A,3,05,09,21,30,07,11,20,,,,,,1.79,1.56,0.89*07
$GPRMC,091624.000,A,4728.4373,N,01903.4670,E,1.97,71.50,041125,,,A*5D
$GPVTG,71.50,T,,M,1.97,N,3.65,K,A*01
$GPGGA,091625.000,4728.4372,N,01903.4681,E,1,7,1.56,87.4,M,41.1,M,,*64
$GPGSA,A,3,05,09,21,30,07,11,20,,,,,,1.79,1.56,0.89*07
$GPRMC,091625.000,A,4728.4372,N,01903.4681,E,2.26,88.59,041125,,,A*55
$GPVTG,88.59,T,,M,2.26,N,4.18,K,A*0A
$GPGGA,091626.000,4728.4370,N,01903.4690,E,1,7,1.56,87.2,M,41.1,M,,*63
$GPGSA,A,3,05,09,21,30,07,11,20,,,,,,1.79,1.56,0.89*07
$GPRMC,091626.000,A,4728.4370,N,01903.4690,E,1.73,95.92,041125,,,A*5C
$GPVTG,95.92,T,,M,1.73,N,3.20,K,A*0E
$GPGGA,091627.000,4728.4371,N,01903.4699,E,1,7,1.56,87.0,M,41.1,M,,*68
$GPGSA,A,3,05,09,21,30,07,11,20,,,,,,1.79,1.56,0.89*07
$GPRMC,091627.000,A,4728.4371,N,01903.4699,E,1.91,82.72,041125,,,A*51
$GPVTG,82.72,T,,M,1.91,N,3.54,K,A*09
$GPGGA,091628.000,4728.4371,N,01903.4708,E,1,7,1.56,86.7,M,41.1,M,,*68
$GPGSA,A,3,05,09,21,30,07,11,20,,,,,,1.79,1.56,0.89*07
$GPGSV,4,1,14,07,75,068,28,30,71,220,28,21,64,279,30,20,58,272,26*75
$GPGSV,4,2,14,09,38,094,24,05,35,309,20,11,22,242,18,13,15,278,19*76
$GPGSV,4,3,14,14,14,172,17,16,06,029,14,06,04,208,14,04,02,097,*73
$GPGSV,4,4,14,27,02,054,,45,,,*4B
$GPRMC,091628.000,A,4728.4371,N,01903.4708,E,2.06,95.59,041125,,,A*55
$GPVTG,95.59,T,,M,2.06,N,3.82,K,A*00
$GPGGA,091629.000,4728.4370,N,01903.4721,E,1,7,1.56,86.5,M,41.1,M,,*61
$GPGSA,A,3,05,09,21,30,07,11,20,,,,,,1.79,1.56,0.89*07
$GPRMC,091629.000,A,4728.4370,N,01903.4721,E,2.53,96.66,041125,,,A*51
$GPVTG,96.66,T,,M,2.53,N,4.69,K,A*0D
$GPGGA,091630.000,4728.4372,N,01903.4734,E,1,7,1.56,86.4,M,41.1,M,,*6E
$GPGSA,A,3,05,09,21,30,07,11,20,,,,,,1.79,1.56,0.89*07
$GPRMC,091630.000,A,4728.4372,N,01903.4734,E,2.69,88.94,041125,,,A*54
$GPVTG,88.94,T,,M,2.69,N,4.98,K,A*08
$GPGGA,091631.000,4728.4371,N,01903.4742,E,1,7,1.56,86.2,M,41.1,M,,*6B
$GPGSA,A,3,05,09,21,30,07,11,20,,,,,,1.79,1.56,0.89*07
$GPRMC,091631.000,A,4728.4371,N,01903.4742,E,2.05,102.27,041125,,,A*66
$GPVTG,102.27,T,,M,2.05,N,3.79,K,A*31
$GPGGA,091632.000,4728.4371,N,01903.4751,E,1,7,1.56,85.9,M,41.1,M,,*62
$GPGSA,A,3,05,09,21,30,07,11,20,,,,,,1.79,1.56,0.89*07
$GPRMC,091632.000,A,4728.4371,N,01903.4751,E,1.81,100.91,041125,,,A*67
$GPVTG,100.91,T,,M,1.81,N,3.35,K,A*39
$GPGGA,091633.000,4728.4375,N,01903.4759,E,1,7,1.56,85.7,M,41.1,M,,*61
$GPGSA,A,3,05,09,21,30,07,11,20,,,,,,1.79,1.56,0.89*07
$GPGSV,4,1,14,07,75,068,31,30,71,220,31,21,64,279,30,20,58,272,27*74
$GPGSV,4,2,14,09,38,094,24,05,36,309,18,11,22,242,17,13,15,278,17*7F
$GPGSV,4,3,14,14,14,172,16,16,06,029,15,06,04,208,13,04,02,097,*74
$GPGSV,4,4,14,27,02,054,,46,,,*48
$GPRMC,091633.000,A,4728.4375,N,01903.4759,E,1.28,93.26,041125,,,A*5E
$GPVTG,93.26,T,,M,1.28,N,2.38,K,A*01
$GPGGA,091634.000,4728.4376,N,01903.4766,E,1,7,1.56,85.5,M,41.1,M,,*6B
$GPGSA,A,3,05,09,21,30,07,11,20,,,,,,1.79,1.56,0.89*07
$GPRMC,091634.000,A,4728.4376,N,01903.4766,E,1.18,62.50,041125,,,A*5A
$GPVTG,62.50,T,,M,1.18,N,2.20,K,A*04
$GPGGA,091635.000,4728.4373,N,01903.4768,E,1,7,1.56,85.4,M,41.1,M,,*60
$GPGSA,A,3,05,09,21,30,07,11,20,,,,,,1.79,1.56,0.89*07
$GPRMC,091635.000,A,4728.4373,N,01903.4768,E,0.30,288.00,041125,,,A*68
$GPVTG,288.00,T,,M,0.30,N,0.56,K,A*3F
$GPGGA,091636.000,4728.4373,N,01903.4770,E,1,7,1.56,85.6,M,41.1,M,,*68
$GPGSA,A,3,05,09,21,30,07,11,20,,,,,,1.79,1.56,0.89*07
$GPRMC,091636.000,A,4728.4373,N,01903.4770,E,0.64,325.74,041125,,,A*66
$GPVTG,325.74,T,,M,0.64,N,1.19,K,A*31
$GPGGA,091637.000,4728.4381,N,01903.4767,E,1,7,1.56,85.7,M,41.1,M,,*63
$GPGSA,A,3,05,09,21,30,07,11,20,,,,,,1.79,1.56,0.89*07
$GPRMC,091637.000,A,4728.4381,N,01903.4767,E,1.77,333.64,041125,,,A*69
$GPVTG,333.64,T,,M,1.77,N,3.28,K,A*34
$GPGGA,091638.000,4728.4389,N,01903.4764,E,1,7,1.56,85.8,M,41.1,M,,*68
$GPGSA,A,3,05,09,21,30,07,11,20,,,,,,1.79,1.56,0.89*07
$GPGSV,4,1,14,07,75,068,34,30,71,220,32,21,64,279,28,20,58,272,28*74
$GPGSV,4,2,14,09,38,094,31,05,36,309,25,11,22,242,18,13,16,279,17*78
$GPGSV,4,3,14,14,14,172,16,16,06,029,14,06,04,208,14,04,02,097,*72
$GPGSV,4,4,14,27,02,054,,47,,,*49
$GPRMC,091638.000,A,4728.4389,N,01903.4764,E,2.01,342.45,041125,,,A*6A
$GPVTG,342.45,T,,M,2.01,N,3.72,K,A*3C
$GPGGA,091639.000,4728.4397,N,01903.4764,E,1,7,1.56,85.8,M,41.1,M,,*66
$GPGSA,A,3,05,09,21,30,07,11,20,,,,,,1.79,1.56,0.89*07
$GPRMC,091639.000,A,4728.4397,N,01903.4764,E,2.26,344.63,041125,,,A*63
$GPVTG,344.63,T,,M,2.26,N,4.20,K,A*3B
$GPGGA,091640.000,4728.4405,N,01903.4762,E,1,7,1.56,85.8,M,41.1,M,,*62
$GPGSA,A,3,05,09,21,30,07,11,20,,,,,,1.79,1.56,0.89*07
$GPRMC,091640.000,A,4728.4405,N,01903.4762,E,2.51,348.06,041125,,,A*68
$GPVTG,348.06,T,,M,2.51,N,4.65,K,A*35
$GPGGA,091641.000,4728.4413,N,01903.4760,E,1,7,1.58,85.7,M,41.1,M,,*67
$GPGSA,A,3,05,09,21,30,07,11,20,,,,,,2.47,1.58,1.90*0E
$GPRMC,091641.000,A,4728.4413,N,01903.4760,E,2.51,343.95,041125,,,A*6D
$GPVTG,343.95,T,,M,2.51,N,4.64,K,A*35
$GPGGA,091642.000,4728.4416,N,01903.4759,E,1,7,1.56,85.7,M,41.1,M,,*65
$GPGSA,A,3,05,09,21,30,07,11,20,,,,,,1.79,1.56,0.89*07
$GPRMC,091642.000,A,4728.4416,N,01903.4759,E,1.93,341.97,041125,,,A*6C
$GPVTG,341.97,T,,M,1.93,N,3.58,K,A*30
$GPGGA,091643.000,4728.4418,N,01903.4757,E,1,7,1.56,85.6,M,41.1,M,,*65
$GPGSA,A,3,05,09,21,30,07,11,20,,,,,,1.79,1.56,0.88*06
$GPGSV,4,1,14,07,75,068,35,30,71,220,32,21,64,279,27,20,58,272,28*7A
$GPGSV,4,2,14,09,38,094,27,05,36,309,26,11,22,242,19,13,16,279,22*7B
$GPGSV,4,3,14,14,15,172,16,16,06,029,14,06,04,208,14,04,02,097,*73
$GPGSV,4,4,14,27,02,054,,49,,,*47
$GPRMC,091643.000,A,4728.4418,N,01903.4757,E,1.78,344.85,041125,,,A*6E
$GPVTG,344.85,T,,M,1.78,N,3.30,K,A*3D
$GPGGA,091644.000,4728.4419,N,01903.4759,E,1,7,1.56,85.7,M,41.1,M,,*6C
$GPGSA,A,3,05,09,21,30,07,11,20,,,,,,1.79,1.56,0.89*07
$GPRMC,091644.000,A,4728.4419,N,01903.4759,E,2.31,355.38,041125,,,A*6E
$GPVTG,355.38,T,,M,2.31,N,4.27,K,A*34
$GPGGA,091645.000,4728.4428,N,01903.4759,E,1,7,1.58,85.8,M,41.1,M,,*6E
$GPGSA,A,3,05,09,21,30,07,11,20,,,,,,2.47,1.58,1.90*0E
$GPRMC,091645.000,A,4728.4428,N,01903.4759,E,2.35,349.58,041125,,,A*62
$GPVTG,349.58,T,,M,2.35,N,4.36,K,A*3B
$GPGGA,091646.000,4728.4437,N,01903.4756,E,1,7,1.58,86.0,M,41.1,M,,*67
$GPGSA,A,3,05,09,21,30,07,11,20,,,,,,2.47,1.58,1.90*0E
$GPRMC,091646.000,A,4728.4437,N,01903.4756,E,2.21,353.97,041125,,,A*6D
$GPVTG,353.97,T,,M,2.21,N,4.10,K,A*32
$GPGGA,091647.000,4728.4446,N,01903.4751,E,1,7,1.58,86.3,M,41.1,M,,*64
$GPGSA,A,3,05,09,21,30,07,11,20,,,,,,2.47,1.58,1.90*0E
$GPRMC,091647.000,A,4728.4446,N,01903.4751,E,2.71,343.00,041125,,,A*67
$GPVTG,343.00,T,,M,2.71,N,5.03,K,A*3B
$GPGGA,091648.000,4728.4444,N,01903.4750,E,1,7,1.56,86.6,M,41.1,M,,*63
$GPGSA,A,3,05,09,21,30,07,11,20,,,,,,1.79,1.56,0.88*06
$GPGSV,4,1,14,07,75,068,35,30,71,220,32,21,64,278,22,20,59,272,24*73
$GPGSV,4,2,14,09,38,094,30,05,36,309,31,11,22,242,22,13,16,279,21*70
$GPGSV,4,3,14,14,15,172,16,16,06,029,13,06,04,208,13,04,02,097,*73
$GPGSV,4,4,14,27,02,054,,49,,,*47
$GPRMC,091648.000,A,4728.4444,N,01903.4750,E,1.99,340.05,041125,,,A*68
$GPVTG,340.05,T,,M,1.99,N,3.68,K,A*33
$GPGGA,091649.000,4728.4452,N,01903.4745,E,1,7,1.56,86.9,M,41.1,M,,*6E
$GPGSA,A,3,05,09,21,30,07,11,20,,,,,,1.79,1.56,0.88*06
$GPRMC,091649.000,A,4728.4452,N,01903.4745,E,2.51,343.80,041125,,,A*63
$GPVTG,343.80,T,,M,2.51,N,4.65,K,A*30
$GPGGA,091650.000,4728.4457,N,01903.4743,E,1,7,1.56,87.1,M,41.1,M,,*6C
$GPGSA,A,3,05,09,21,30,07,11,20,,,,,,1.79,1.56,0.88*06
$GPRMC,091650.000,A,4728.4457,N,01903.4743,E,2.05,353.46,041125,,,A*62
$GPVTG,353.46,T,,M,2.05,N,3.80,K,A*36
$GPGGA,091651.000,4728.4465,N,01903.4740,E,1,7,1.58,87.2,M,41.1,M,,*62
$GPGSA,A,3,05,09,21,30,07,11,20,,,,,,2.47,1.58,1.90*0E
$GPRMC,091651.000,A,4728.4465,N,01903.4740,E,2.63,337.88,041125,,,A*61
$GPVTG,337.88,T,,M,2.63,N,4.87,K,A*36
$GPGGA,091652.000,4728.4472,N,01903.4738,E,1,7,1.56,87.2,M,41.1,M,,*66
$GPGSA,A,3,05,09,21,30,07,11,20,,,,,,1.79,1.56,0.88*06
$GPRMC,091652.000,A,4728.4472,N,01903.4738,E,2.49,334.09,041125,,,A*69
$GPVTG,334.09,T,,M,2.49,N,4.61,K,A*3C
$GPGGA,091653.000,4728.4482,N,01903.4737,E,1,7,1.56,87.4,M,41.1,M,,*61
$GPGSA,A,3,05,09,21,30,07,11,20,,,,,,1.79,1.56,0.88*06
$GPGSV,4,1,14,07,75,068,35,30,71,220,31,21,64,278,24,20,59,272,26*74
$GPGSV,4,2,14,09,38,094,31,05,36,309,22,11,22,242,21,13,16,279,20*71
$GPGSV,4,3,14,14,15,172,17,16,06,029,13,06,04,208,12,04,02,097,*73
$GPGSV,4,4,14,27,02,054,,42,,,*4C
$GPRMC,091653.000,A,4728.4482,N,01903.4737,E,2.90,352.87,041125,,,A*6A
$GPVTG,352.87,T,,M,2.90,N,5.37,K,A*3C
$GPGGA,091654.000,4728.4491,N,01903.4736,E,1,7,1.58,87.7,M,41.1,M,,*68
$GPGSA,A,3,05,09,21,30,07,11,20,,,,,,2.47,1.58,1.90*0E
$GPRMC,091654.000,A,4728.4491,N,01903.4736,E,2.68,353.51,041125,,,A*63
$GPVTG,353.51,T,,M,2.68,N,4.96,K,A*3B
$GPGGA,091655.000,4728.4504,N,01903.4735,E,1,7,1.58,88.1,M,41.1,M,,*6E
$GPGSA,A,3,05,09,21,30,07,11,20,,,,,,2.47,1.58,1.90*0E
$GPRMC,091655.000,A,4728.4504,N,01903.4735,E,2.77,348.03,041125,,,A*6F
$GPVTG,348.03,T,,M,2.77,N,5.13,K,A*34
$GPGGA,091656.000,4728.4510,N,01903.4735,E,1,7,1.58,88.4,M,41.1,M,,*6D
$GPGSA,A,3,05,09,21,30,07,11,20,,,,,,2.47,1.58,1.90*0E
$GPRMC,091656.000,A,4728.4510,N,01903.4735,E,1.74,348.85,041125,,,A*67
$GPVTG,348.85,T,,M,1.74,N,3.22,K,A*3E
$GPGGA,091657.000,4728.4517,N,01903.4734,E,1,7,1.58,88.6,M,41.1,M,,*68
$GPGSA,A,3,05,09,21,30,07,11,20,,,,,,2.47,1.58,1.90*0E
$GPRMC,091657.000,A,4728.4517,N,01903.4734,E,1.93,345.52,041125,,,A*6E
$GPVTG,345.52,T,,M,1.93,N,3.58,K,A*3D
$GPGGA,091658.000,4728.4524,N,01903.4731,E,1,7,1.58,88.8,M,41.1,M,,*6C
$GPGSA,A,3,05,09,21,30,07,11,20,,,,,,2.47,1.58,1.90*0E
$GPGSV,4,1,14,07,75,068,33,30,72,220,33,21,64,278,25,20,59,272,20*74
$GPGSV,4,2,14,09,38,094,30,05,36,309,18,11,22,242,26,13,16,279,17*7A
$GPGSV,4,3,14,14,15,172,19,16,06,029,13,06,04,208,,04,02,097,*7E
$GPGSV,4,4,14,27,02,054,,50,,,*4F
$GPRMC,091658.000,A,4728.4524,N,01903.4731,E,2.23,331.79,041125,,,A*66
$GPVTG,331.79,T,,M,2.23,N,4.12,K,A*36
$GPGGA,091659.000,4728.4531,N,01903.4728,E,1,7,1.56,88.9,M,41.1,M,,*6E
$GPGSA,A,3,05,09,21,30,07,11,20,,,,,,1.79,1.56,0.88*06
$GPRMC,091659.000,A,4728.4531,N,01903.4728,E,1.94,334.04,041125,,,A*6B
$GPVTG,334.04,T,,M,1.94,N,3.59,K,A*3E
$GPGGA,091700.000,4728.4534,N,01903.4726,E,1,7,1.56,88.9,M,41.1,M,,*68
$GPGSA,A,3,05,09,21,30,07,11,20,,,,,,1.79,1.56,0.88*06
$GPRMC,091700.000,A,4728.4534,N,01903.4726,E,1.43,331.83,041125,,,A*6D
$GPVTG,331.83,T,,M,1.43,N,2.64,K,A*31
$GPGGA,091701.000,4728.4536,N,01903.4725,E,1,7,1.56,88.9,M,41.1,M,,*68
$GPGSA,A,3,05,09,21,30,07,11,20,,,,,,1.79,1.56,0.88*06
$GPRMC,091701.000,A,4728.4536,N,01903.4725,E,0.84,334.82,041125,,,A*63
$GPVTG,334.82,T,,M,0.84,N,1.55,K,A*3E
$GPGGA,091702.000,4728.4534,N,01903.4725,E,1,7,1.56,88.8,M,41.1,M,,*68
$GPGSA,A,3,05,09,21,30,07,11,20,,,,,,1.79,1.56,0.88*06
$GPRMC,091702.000,A,4728.4534,N,01903.4725,E,0.18,212.58,041125,,,A*65
$GPVTG,212.58,T,,M,0.18,N,0.33,K,A*38
$GPGGA,091703.000,4728.4527,N,01903.4721,E,1,7,1.56,88.8,M,41.1,M,,*6F
$GPGSA,A,3,05,09,21,30,07,11,20,,,,,,1.79,1.56,0.88*06
$GPGSV,4,1,13,07,75,068,14,30,72,220,19,21,64,278,16,20,59,272,16*7B
$GPGSV,4,2,13,09,38,094,20,05,36,309,16,11,22,242,19,13,16,279,19*70
$GPGSV,4,3,13,14,15,172,19,16,06,029,,06,04,208,,04,02,097,*7B
$GPGSV,4,4,13,27,02,054,*4D
$GPRMC,091703.000,A,4728.4527,N,01903.4721,E,1.25,220.86,041125,,,A*6F
$GPVTG,220.86,T,,M,1.25,N,2.32,K,A*36
$GPGGA,091704.000,4728.4519,N,01903.4720,E,1,7,1.56,88.8,M,41.1,M,,*64
$GPGSA,A,3,05,09,21,30,07,11,20,,,,,,1.79,1.56,0.88*06
$GPRMC,091704.000,A,4728.4519,N,01903.4720,E,1.79,193.96,041125,,,A*67
$GPVTG,193.96,T,,M,1.79,N,3.31,K,A*37
$GPGGA,091705.000,4728.4514,N,01903.4721,E,1,7,1.56,88.8,M,41.1,M,,*69
$GPGSA,A,3,05,09,21,30,07,11,20,,,,,,1.79,1.56,0.88*06
$GPRMC,091705.000,A,4728.4514,N,01903.4721,E,1.91,180.83,041125,,,A*6A
$GPVTG,180.83,T,,M,1.91,N,3.54,K,A*34
$GPGGA,091706.000,4728.4506,N,01903.4725,E,1,7,1.56,88.8,M,41.1,M,,*6D
$GPGSA,A,3,05,09,21,30,07,11,20,,,,,,1.79,1.56,0.88*06
$GPRMC,091706.000,A,4728.4506,N,01903.4725,E,2.25,171.34,041125,,,A*60
$GPVTG,171.34,T,,M,2.25,N,4.16,K,A*3B
$GPGGA,091707.000,4728.4497,N,01903.4728,E,1,7,1.56,88.8,M,41.1,M,,*68
$GPGSA,A,3,05,09,21,30,07,11,20,,,,,,1.79,1.56,0.88*06
$GPRMC,091707.000,A,4728.4497,N,01903.4728,E,2.69,167.92,041125,,,A*66
$GPVTG,167.92,T,,M,2.69,N,4.99,K,A*3F
